{"type":"FeatureCollection","features":[{"type":"Feature","properties":{"name":"Munyonyo Spur (dual)","functional_class":"Main National Road","surface_type":"Bituminous","length_km":12.344,"road_no":"M3N2"},"geometry":{"type":"LineString","coordinates":[[32.6205,0.23913],[32.61059,0.23646],[32.60883,0.23518],[32.60632,0.22823],[32.60364,0.21622],[32.60012,0.2083],[32.59827,0.20708],[32.59406,0.20623],[32.59171,0.20641],[32.58554,0.20995],[32.58279,0.21069],[32.57646,0.21056],[32.56991,0.20967],[32.55869,0.20975],[32.55133,0.20795],[32.54852,0.20779],[32.54618,0.20862],[32.54325,0.21141],[32.53933,0.21375],[32.53402,0.21527]]}},{"type":"Feature","properties":{"name":"Masanafu Interchange Slip 4","functional_class":"Main National Road","surface_type":"Bituminous","length_km":0.369,"road_no":"M20"},"geometry":{"type":"LineString","coordinates":[[32.52919,0.33496],[32.52771,0.332]]}},{"type":"Feature","properties":{"name":"Masanafu Interchange Slip 3","functional_class":"Main National Road","surface_type":"Bituminous","length_km":0.502,"road_no":"M20"},"geometry":{"type":"LineString","coordinates":[[32.52678,0.33257],[32.52975,0.33593]]}},{"type":"Feature","properties":{"name":"Kampala NorthernBypass","functional_class":"Main National Road","surface_type":"Bituminous","length_km":19.999,"road_no":"M20"},"geometry":{"type":"LineString","coordinates":[[32.65356,0.34894],[32.65109,0.35569],[32.65114,0.3605],[32.64569,0.36617],[32.64374,0.36625],[32.63814,0.36185],[32.636,0.36128],[32.63371,0.36275],[32.63301,0.36602],[32.63215,0.36739],[32.62864,0.36919],[32.62682,0.36943],[32.61539,0.36851],[32.61066,0.36569],[32.60666,0.36591],[32.60487,0.36528],[32.60352,0.36389],[32.60229,0.36052],[32.60092,0.35927],[32.594,0.3581],[32.59253,0.35738],[32.58822,0.35096],[32.58634,0.34961],[32.58259,0.34919],[32.57475,0.35252],[32.56982,0.35267],[32.56808,0.35207],[32.56482,0.34968],[32.55996,0.34913],[32.55672,0.34752],[32.54478,0.34582],[32.53705,0.34318],[32.53127,0.33747],[32.5285,0.33396],[32.5244,0.32732],[32.52158,0.31836],[32.5189,0.31554]]}},{"type":"Feature","properties":{"name":"Namungoona Interchange Slip 4","functional_class":"Main National Road","surface_type":"Bituminous","length_km":0.479,"road_no":"M20"},"geometry":{"type":"LineString","coordinates":[[32.53846,0.34391],[32.54222,0.34582]]}},{"type":"Feature","properties":{"name":"Bwaise Interchange Slip 3","functional_class":"Main National Road","surface_type":"Bituminous","length_km":0.469,"road_no":"M20"},"geometry":{"type":"LineString","coordinates":[[32.559,0.3489],[32.56295,0.35014]]}},{"type":"Feature","properties":{"name":"Kyebando Interchange Slip 9","functional_class":"Main National Road","surface_type":"Bituminous","length_km":0.476,"road_no":"M20"},"geometry":{"type":"LineString","coordinates":[[32.58566,0.34953],[32.58762,0.35068],[32.58852,0.3524]]}},{"type":"Feature","properties":{"name":"Kyebando Interchange Slip 4","functional_class":"Main National Road","surface_type":"Bituminous","length_km":0.5,"road_no":"M20"},"geometry":{"type":"LineString","coordinates":[[32.59158,0.35641],[32.58962,0.35237]]}},{"type":"Feature","properties":{"name":"Kyebando Interchange Slip 5","functional_class":"Main National Road","surface_type":"Bituminous","length_km":0.128,"road_no":"M20"},"geometry":{"type":"LineString","coordinates":[[32.58962,0.35237],[32.59051,0.35266]]}},{"type":"Feature","properties":{"name":"Kyebando Interchange Slip 10","functional_class":"Main National Road","surface_type":"Bituminous","length_km":0.146,"road_no":"M20"},"geometry":{"type":"LineString","coordinates":[[32.58852,0.3524],[32.58732,0.35267]]}},{"type":"Feature","properties":{"name":"Kyebando Interchange Slip 8","functional_class":"Main National Road","surface_type":"Bituminous","length_km":0.249,"road_no":"M20"},"geometry":{"type":"LineString","coordinates":[[32.59047,0.35251],[32.5887,0.35124]]}},{"type":"Feature","properties":{"name":"Kisaasi Interchange Slip 7","functional_class":"Main National Road","surface_type":"Bituminous","length_km":0.308,"road_no":"M20"},"geometry":{"type":"LineString","coordinates":[[32.60311,0.36322],[32.60445,0.36561]]}},{"type":"Feature","properties":{"name":"Kisaasi Interchange Slip 2","functional_class":"Main National Road","surface_type":"Bituminous","length_km":0.42,"road_no":"M20"},"geometry":{"type":"LineString","coordinates":[[32.60457,0.36637],[32.6051,0.36597],[32.60813,0.36589]]}},{"type":"Feature","properties":{"name":"Kisaasi Interchange Slip 6","functional_class":"Main National Road","surface_type":"Bituminous","length_km":0.288,"road_no":"M20"},"geometry":{"type":"LineString","coordinates":[[32.60496,0.36483],[32.60316,0.36309]]}},{"type":"Feature","properties":{"name":"Kisaasi Interchange Slip 3","functional_class":"Main National Road","surface_type":"Bituminous","length_km":0.422,"road_no":"M20"},"geometry":{"type":"LineString","coordinates":[[32.60897,0.36563],[32.6068,0.36571],[32.6054,0.36504]]}},{"type":"Feature","properties":{"name":"Kisaasi Interchange Slip 1","functional_class":"Main National Road","surface_type":"Bituminous","length_km":0.361,"road_no":"M20"},"geometry":{"type":"LineString","coordinates":[[32.6045,0.36584],[32.60507,0.3658],[32.60531,0.36489],[32.60483,0.36492],[32.6045,0.36584]]}},{"type":"Feature","properties":{"name":"Naalya Interchange Slip 10","functional_class":"Main National Road","surface_type":"Bituminous","length_km":0.45,"road_no":"M20"},"geometry":{"type":"LineString","coordinates":[[32.63301,0.36356],[32.63295,0.36595],[32.63215,0.36739]]}},{"type":"Feature","properties":{"name":"Naalya Interchange Slip 6","functional_class":"Main National Road","surface_type":"Bituminous","length_km":0.598,"road_no":"M20"},"geometry":{"type":"LineString","coordinates":[[32.63395,0.36336],[32.63442,0.36235],[32.63567,0.36156],[32.63825,0.36205]]}},{"type":"Feature","properties":{"name":"Naalya Interchange Slip 3","functional_class":"Main National Road","surface_type":"Bituminous","length_km":0.208,"road_no":"M20"},"geometry":{"type":"LineString","coordinates":[[32.63382,0.36373],[32.63559,0.36393]]}},{"type":"Feature","properties":{"name":"Naalya Interchange Slip 4","functional_class":"Main National Road","surface_type":"Bituminous","length_km":0.233,"road_no":"M20"},"geometry":{"type":"LineString","coordinates":[[32.6334,0.36498],[32.63364,0.36397],[32.6346,0.36359]]}},{"type":"Feature","properties":{"name":"Naalya Interchange Slip 5","functional_class":"Main National Road","surface_type":"Bituminous","length_km":0.198,"road_no":"M20"},"geometry":{"type":"LineString","coordinates":[[32.63559,0.36393],[32.63395,0.36336]]}},{"type":"Feature","properties":{"name":"Namboole Interchange Slip 2","functional_class":"Main National Road","surface_type":"Bituminous","length_km":0.369,"road_no":"M20"},"geometry":{"type":"LineString","coordinates":[[32.65407,0.34917],[32.65658,0.3513]]}},{"type":"Feature","properties":{"name":"Namboole Interchange Slip 3","functional_class":"Main National Road","surface_type":"Bituminous","length_km":0.397,"road_no":"M20"},"geometry":{"type":"LineString","coordinates":[[32.65658,0.3513],[32.65455,0.34838]]}},{"type":"Feature","properties":{"name":"Kampala NorthernBypass (dual)","functional_class":"Main National Road","surface_type":"Bituminous","length_km":20.024,"road_no":"M20N1"},"geometry":{"type":"LineString","coordinates":[[32.51877,0.31565],[32.52135,0.31827],[32.52424,0.3273],[32.52704,0.33201],[32.53071,0.3371],[32.5368,0.34322],[32.5446,0.34594],[32.55671,0.34768],[32.55992,0.34929],[32.56486,0.34987],[32.56801,0.35222],[32.56973,0.35283],[32.57502,0.3526],[32.58247,0.34933],[32.5862,0.34967],[32.588,0.35082],[32.59271,0.3576],[32.60075,0.35928],[32.60215,0.36049],[32.60335,0.36378],[32.60489,0.36541],[32.60681,0.366],[32.61053,0.36575],[32.61553,0.36864],[32.62681,0.36951],[32.6289,0.36919],[32.63233,0.36732],[32.63395,0.3626],[32.63614,0.36137],[32.63793,0.36182],[32.64368,0.36632],[32.64567,0.36629],[32.65125,0.36049],[32.65123,0.35556],[32.65407,0.34917]]}},{"type":"Feature","properties":{"name":"Busega Interchange Slip 6","functional_class":"Main National Road","surface_type":"Bituminous","length_km":0.593,"road_no":"M3"},"geometry":{"type":"LineString","coordinates":[[32.51266,0.30616],[32.5139,0.31133]]}},{"type":"Feature","properties":{"name":"Kampala - Entebbe Expressway (dual)","functional_class":"Main National Road","surface_type":"Bituminous","length_km":24.958,"road_no":"M3N1"},"geometry":{"type":"LineString","coordinates":[[32.50971,0.10286],[32.51228,0.10579],[32.5132,0.10943],[32.51164,0.11884],[32.51113,0.12982],[32.51005,0.13838],[32.51162,0.1564],[32.51552,0.17269],[32.51692,0.17566],[32.52455,0.18723],[32.52684,0.20132],[32.53077,0.21238],[32.5312,0.21522],[32.53034,0.21978],[32.52434,0.22993],[32.52356,0.23243],[32.52394,0.24115],[32.52246,0.25016],[32.5226,0.25653],[32.52061,0.26196],[32.52064,0.26771],[32.52013,0.27087],[32.51832,0.27493],[32.5126,0.28275],[32.51119,0.28692],[32.51245,0.29646],[32.5129,0.30726],[32.51657,0.31377],[32.5188,0.31567]]}},{"type":"Feature","properties":{"name":"Mpala Interchange Slip 1","functional_class":"Main National Road","surface_type":"Bituminous","length_km":0.396,"road_no":"M3"},"geometry":{"type":"LineString","coordinates":[[32.51273,0.10548],[32.51205,0.1059],[32.5116,0.10545],[32.5123,0.10487],[32.51283,0.10504],[32.51273,0.10548]]}},{"type":"Feature","properties":{"name":"Mpala Interchange Slip 2","functional_class":"Main National Road","surface_type":"Bituminous","length_km":0.671,"road_no":"M3"},"geometry":{"type":"LineString","coordinates":[[32.51323,0.11146],[32.51338,0.10866],[32.51273,0.10551]]}},{"type":"Feature","properties":{"name":"Kajjansi Interchange Slip 8","functional_class":"Main National Road","surface_type":"Bituminous","length_km":0.426,"road_no":"M3"},"geometry":{"type":"LineString","coordinates":[[32.54187,0.212],[32.53867,0.21407]]}},{"type":"Feature","properties":{"name":"Kajjansi Interchange Slip 6","functional_class":"Main National Road","surface_type":"Bituminous","length_km":0.53,"road_no":"M3"},"geometry":{"type":"LineString","coordinates":[[32.54216,0.21262],[32.54559,0.20931]]}},{"type":"Feature","properties":{"name":"Munyonyo Spur","functional_class":"Main National Road","surface_type":"Bituminous","length_km":12.336,"road_no":"M3"},"geometry":{"type":"LineString","coordinates":[[32.53409,0.21536],[32.53938,0.21384],[32.54327,0.21156],[32.54663,0.20847],[32.54839,0.20792],[32.55114,0.208],[32.55976,0.20994],[32.56908,0.20979],[32.58288,0.21074],[32.5859,0.20986],[32.59153,0.2065],[32.59427,0.20635],[32.59866,0.20729],[32.60041,0.20889],[32.60374,0.21654],[32.60611,0.22805],[32.60861,0.23504],[32.61087,0.23668],[32.62044,0.23935]]}},{"type":"Feature","properties":{"name":"Kampala - Entebbe Expressway","functional_class":"Main National Road","surface_type":"Bituminous","length_km":24.811,"road_no":"M3"},"geometry":{"type":"LineString","coordinates":[[32.51892,0.31555],[32.51664,0.3137],[32.51297,0.30719],[32.51251,0.29639],[32.51126,0.28685],[32.51267,0.28268],[32.51839,0.27486],[32.5202,0.2708],[32.52071,0.26764],[32.52068,0.26189],[32.52267,0.25646],[32.52253,0.25009],[32.52401,0.24108],[32.52363,0.23236],[32.52441,0.22986],[32.53041,0.21971],[32.53127,0.21515],[32.53084,0.21231],[32.52691,0.20125],[32.52462,0.18716],[32.51699,0.17559],[32.51559,0.17262],[32.51169,0.15633],[32.51012,0.13831],[32.5112,0.12975],[32.51171,0.11877],[32.5133,0.11034],[32.51283,0.10663],[32.51072,0.10376]]}},{"type":"Feature","properties":{"name":"Naalya Interchange Slip 11","functional_class":"Main National Road","surface_type":"Bituminous","length_km":0.369,"road_no":"M20"},"geometry":{"type":"LineString","coordinates":[[32.63124,0.36363],[32.63289,0.36356],[32.63307,0.36516]]}},{"type":"Feature","properties":{"name":"Kalerwe Interchange Slip 1","functional_class":"Main National Road","surface_type":"Bituminous","length_km":0.449,"road_no":"M20"},"geometry":{"type":"LineString","coordinates":[[32.57191,0.35345],[32.57575,0.35235]]}},{"type":"Feature","properties":{"name":"Kalerwe Interchange Slip 2","functional_class":"Main National Road","surface_type":"Bituminous","length_km":0.399,"road_no":"M20"},"geometry":{"type":"LineString","coordinates":[[32.57568,0.35223],[32.57216,0.35232]]}},{"type":"Feature","properties":{"name":"Masanafu Interchange Slip 1","functional_class":"Main National Road","surface_type":"Bituminous","length_km":0.39,"road_no":"M20"},"geometry":{"type":"MultiLineString","coordinates":[[[32.52677,0.33257],[32.52771,0.332]],[[32.52653,0.33202],[32.52678,0.33257]],[[32.52742,0.33151],[32.52653,0.33202]],[[32.52771,0.332],[32.52741,0.33151]]]}},{"type":"Feature","properties":{"name":"Busega Interchange Slip 5","functional_class":"Main National Road","surface_type":"Bituminous","length_km":0.561,"road_no":"M3"},"geometry":{"type":"LineString","coordinates":[[32.51517,0.30933],[32.51445,0.30934],[32.51359,0.30835],[32.51267,0.30551]]}},{"type":"Feature","properties":{"name":"Namungoona Interchange Slip 3","functional_class":"Main National Road","surface_type":"Bituminous","length_km":0.454,"road_no":"M20"},"geometry":{"type":"LineString","coordinates":[[32.54248,0.3446],[32.53853,0.34376]]}},{"type":"Feature","properties":{"name":"Namungoona Interchange Slip 1","functional_class":"Main National Road","surface_type":"Bituminous","length_km":0.5,"road_no":"M20"},"geometry":{"type":"LineString","coordinates":[[32.54222,0.34582],[32.54663,0.34629]]}},{"type":"Feature","properties":{"name":"Bwaise Interchange Slip 2","functional_class":"Main National Road","surface_type":"Bituminous","length_km":0.367,"road_no":"M20"},"geometry":{"type":"LineString","coordinates":[[32.56274,0.34897],[32.55955,0.34899]]}},{"type":"Feature","properties":{"name":"Kalerwe Interchange Slip 3","functional_class":"Main National Road","surface_type":"Bituminous","length_km":1.092,"road_no":"M20"},"geometry":{"type":"LineString","coordinates":[[32.57188,0.35217],[32.57093,0.35257],[32.56886,0.35241],[32.56548,0.34983],[32.56336,0.34905]]}},{"type":"Feature","properties":{"name":"Kyebando Interchange Slip 3","functional_class":"Main National Road","surface_type":"Bituminous","length_km":0.499,"road_no":"M20"},"geometry":{"type":"LineString","coordinates":[[32.5887,0.35278],[32.59143,0.3563]]}},{"type":"Feature","properties":{"name":"Kyebando Interchange Slip 2","functional_class":"Main National Road","surface_type":"Bituminous","length_km":0.11,"road_no":"M20"},"geometry":{"type":"LineString","coordinates":[[32.58772,0.35274],[32.5887,0.35278]]}},{"type":"Feature","properties":{"name":"Kyebando Interchange Slip 7","functional_class":"Main National Road","surface_type":"Bituminous","length_km":0.447,"road_no":"M20"},"geometry":{"type":"LineString","coordinates":[[32.58947,0.35199],[32.58784,0.35035],[32.58634,0.34961]]}},{"type":"Feature","properties":{"name":"Kyebando Interchange Slip 6","functional_class":"Main National Road","surface_type":"Bituminous","length_km":0.132,"road_no":"M20"},"geometry":{"type":"LineString","coordinates":[[32.59047,0.35251],[32.58946,0.35199]]}},{"type":"Feature","properties":{"name":"Kyebando Interchange Slip 1","functional_class":"Main National Road","surface_type":"Bituminous","length_km":0.334,"road_no":"M20"},"geometry":{"type":"LineString","coordinates":[[32.58854,0.35236],[32.58874,0.35279],[32.58962,0.35229],[32.58931,0.35197],[32.58853,0.35236]]}},{"type":"Feature","properties":{"name":"Kisaasi Interchange Slip 5","functional_class":"Main National Road","surface_type":"Bituminous","length_km":0.191,"road_no":"M20"},"geometry":{"type":"LineString","coordinates":[[32.6062,0.36353],[32.60505,0.3648]]}},{"type":"Feature","properties":{"name":"Kisaasi Interchange Slip 4","functional_class":"Main National Road","surface_type":"Bituminous","length_km":0.188,"road_no":"M20"},"geometry":{"type":"LineString","coordinates":[[32.60539,0.36499],[32.60623,0.36355]]}},{"type":"Feature","properties":{"name":"Kisaasi Interchange Slip 8","functional_class":"Main National Road","surface_type":"Bituminous","length_km":0.059,"road_no":"M20"},"geometry":{"type":"LineString","coordinates":[[32.6045,0.36582],[32.60447,0.36633]]}},{"type":"Feature","properties":{"name":"Naalya Interchange Slip 9","functional_class":"Main National Road","surface_type":"Bituminous","length_km":0.206,"road_no":"M20"},"geometry":{"type":"LineString","coordinates":[[32.63124,0.36363],[32.63301,0.36356]]}},{"type":"Feature","properties":{"name":"Naalya Interchange Slip 8","functional_class":"Main National Road","surface_type":"Bituminous","length_km":0.205,"road_no":"M20"},"geometry":{"type":"LineString","coordinates":[[32.63299,0.36313],[32.63124,0.36356]]}},{"type":"Feature","properties":{"name":"Naalya Interchange Slip 7","functional_class":"Main National Road","surface_type":"Bituminous","length_km":0.39,"road_no":"M20"},"geometry":{"type":"LineString","coordinates":[[32.636,0.36128],[32.63438,0.36181],[32.63312,0.36304]]}},{"type":"Feature","properties":{"name":"Naalya Interchange Slip 2","functional_class":"Main National Road","surface_type":"Bituminous","length_km":0.4,"road_no":"M20"},"geometry":{"type":"LineString","coordinates":[[32.63259,0.36701],[32.63381,0.36373]]}},{"type":"Feature","properties":{"name":"Naalya Interchange Slip 1","functional_class":"Main National Road","surface_type":"Bituminous","length_km":0.312,"road_no":"M20"},"geometry":{"type":"MultiLineString","coordinates":[[[32.63299,0.36313],[32.63301,0.36356]],[[32.63301,0.36356],[32.63382,0.36373]],[[32.63395,0.36336],[32.63299,0.36313]],[[32.63381,0.36373],[32.63395,0.36336]]]}},{"type":"Feature","properties":{"name":"Namboole Interchange Slip 4","functional_class":"Main National Road","surface_type":"Bituminous","length_km":0.341,"road_no":"M20"},"geometry":{"type":"LineString","coordinates":[[32.65398,0.34814],[32.65106,0.34725]]}},{"type":"Feature","properties":{"name":"Namboole Interchange Slip 5","functional_class":"Main National Road","surface_type":"Bituminous","length_km":0.339,"road_no":"M20"},"geometry":{"type":"LineString","coordinates":[[32.65106,0.34725],[32.65356,0.34892]]}},{"type":"Feature","properties":{"name":"Namboole Interchange Slip 1","functional_class":"Main National Road","surface_type":"Bituminous","length_km":0.355,"road_no":"M20"},"geometry":{"type":"MultiLineString","coordinates":[[[32.65407,0.34917],[32.65455,0.34839],[32.65428,0.34809],[32.65356,0.34892]],[[32.65356,0.34892],[32.65407,0.34917]]]}},{"type":"Feature","properties":{"name":"Masanafu Interchange Slip 2","functional_class":"Main National Road","surface_type":"Bituminous","length_km":0.1,"road_no":"M20"},"geometry":{"type":"LineString","coordinates":[[32.52591,0.33258],[32.52677,0.33257]]}},{"type":"Feature","properties":{"name":"Masanafu Interchange Slip 5","functional_class":"Main National Road","surface_type":"Bituminous","length_km":0.089,"road_no":"M20"},"geometry":{"type":"LineString","coordinates":[[32.52771,0.332],[32.52833,0.33153]]}},{"type":"Feature","properties":{"name":"Masanafu Interchange Slip 8","functional_class":"Main National Road","surface_type":"Bituminous","length_km":0.425,"road_no":"M20"},"geometry":{"type":"LineString","coordinates":[[32.52487,0.32861],[32.52653,0.33202]]}},{"type":"Feature","properties":{"name":"Masanafu Interchange Slip 9","functional_class":"Main National Road","surface_type":"Bituminous","length_km":0.096,"road_no":"M20"},"geometry":{"type":"LineString","coordinates":[[32.52653,0.33202],[32.5259,0.33256]]}},{"type":"Feature","properties":{"name":"Masanafu Interchange Slip 6","functional_class":"Main National Road","surface_type":"Bituminous","length_km":0.104,"road_no":"M20"},"geometry":{"type":"LineString","coordinates":[[32.52832,0.33151],[32.52742,0.33151]]}},{"type":"Feature","properties":{"name":"Masanafu Interchange Slip 7","functional_class":"Main National Road","surface_type":"Bituminous","length_km":0.356,"road_no":"M20"},"geometry":{"type":"LineString","coordinates":[[32.52741,0.33151],[32.52533,0.3291]]}},{"type":"Feature","properties":{"name":"Busega Interchange Slip 3","functional_class":"Main National Road","surface_type":"Bituminous","length_km":0.779,"road_no":"M20"},"geometry":{"type":"LineString","coordinates":[[32.5189,0.31554],[32.51705,0.31383],[32.51548,0.30967]]}},{"type":"Feature","properties":{"name":"Kajjansi Interchange Slip 4","functional_class":"Main National Road","surface_type":"Bituminous","length_km":0.822,"road_no":"M3"},"geometry":{"type":"LineString","coordinates":[[32.53404,0.21526],[32.53184,0.21466],[32.53,0.20998]]}},{"type":"Feature","properties":{"name":"Kajjansi Interchange Slip 2","functional_class":"Main National Road","surface_type":"Bituminous","length_km":0.985,"road_no":"M3"},"geometry":{"type":"LineString","coordinates":[[32.53017,0.21069],[32.53061,0.21284],[32.52984,0.21439],[32.53008,0.21517],[32.53409,0.21536]]}},{"type":"Feature","properties":{"name":"Kajjansi Interchange Slip 3","functional_class":"Main National Road","surface_type":"Bituminous","length_km":0.727,"road_no":"M3"},"geometry":{"type":"LineString","coordinates":[[32.53402,0.21527],[32.53058,0.21532],[32.52999,0.21423],[32.53068,0.21396],[32.53116,0.21465]]}},{"type":"Feature","properties":{"name":"Kajjansi Interchange Slip 1","functional_class":"Main National Road","surface_type":"Bituminous","length_km":0.603,"road_no":"M3"},"geometry":{"type":"LineString","coordinates":[[32.53076,0.2188],[32.53173,0.21602],[32.53407,0.21536]]}},{"type":"Feature","properties":{"name":"Kajjansi Interchange Slip 7","functional_class":"Main National Road","surface_type":"Bituminous","length_km":0.385,"road_no":"M3"},"geometry":{"type":"LineString","coordinates":[[32.54467,0.21004],[32.54187,0.212]]}},{"type":"Feature","properties":{"name":"Kajjansi Interchange Slip 5","functional_class":"Main National Road","surface_type":"Bituminous","length_km":0.406,"road_no":"M3"},"geometry":{"type":"LineString","coordinates":[[32.53884,0.21411],[32.54216,0.21262]]}},{"type":"Feature","properties":{"name":"Mpala Interchange Slip 3","functional_class":"Main National Road","surface_type":"Bituminous","length_km":0.15,"road_no":"M3"},"geometry":{"type":"LineString","coordinates":[[32.51273,0.10551],[32.51401,0.10522]]}},{"type":"Feature","properties":{"name":"Bwaise Interchange Slip 1","functional_class":"Main National Road","surface_type":"Bituminous","length_km":1.093,"road_no":"M20"},"geometry":{"type":"LineString","coordinates":[[32.56295,0.35014],[32.5652,0.35011],[32.56838,0.35248],[32.57175,0.35329]]}},{"type":"Feature","properties":{"name":"Namungoona Interchange Slip 2","functional_class":"Main National Road","surface_type":"Bituminous","length_km":0.517,"road_no":"M20"},"geometry":{"type":"LineString","coordinates":[[32.54692,0.34617],[32.54327,0.34517],[32.54271,0.34457]]}},{"type":"Feature","properties":{"name":"Busega Interchange Slip 1","functional_class":"Main National Road","surface_type":"Bituminous","length_km":0.769,"road_no":"M20"},"geometry":{"type":"LineString","coordinates":[[32.51391,0.31207],[32.51716,0.30649]]}},{"type":"Feature","properties":{"name":"Busega Interchange Slip 2","functional_class":"Main National Road","surface_type":"Bituminous","length_km":0.664,"road_no":"M20"},"geometry":{"type":"LineString","coordinates":[[32.51435,0.31179],[32.51877,0.31565]]}},{"type":"Feature","properties":{"name":"Busega Interchange Slip 4","functional_class":"Main National Road","surface_type":"Bituminous","length_km":0.677,"road_no":"M3"},"geometry":{"type":"LineString","coordinates":[[32.51648,0.30651],[32.51391,0.31164]]}},{"type":"Feature","properties":{"name":"Mpala Interchange Slip 4","functional_class":"Main National Road","surface_type":"Bituminous","length_km":0.368,"road_no":"M3"},"geometry":{"type":"LineString","coordinates":[[32.50966,0.1028],[32.5116,0.10545]]}},{"type":"Feature","properties":{"name":"Mpala Interchange Slip 5","functional_class":"Main National Road","surface_type":"Bituminous","length_km":0.691,"road_no":"M3"},"geometry":{"type":"LineString","coordinates":[[32.5118,0.10581],[32.51289,0.10827],[32.51312,0.11175]]}}]}