{"type":"FeatureCollection","features":[{"type":"Feature","properties":{"name":"Kalagi - Bukoloto - Kayunga","functional_class":"Class B National Road","surface_type":"Bituminous","length_km":31.673,"road_no":"B101"},"geometry":{"type":"LineString","coordinates":[[32.74939,0.50428],[32.75682,0.51105],[32.76776,0.51322],[32.76931,0.51394],[32.77938,0.52674],[32.7825,0.52854],[32.78363,0.5298],[32.78432,0.53165],[32.78464,0.53679],[32.78587,0.53989],[32.79288,0.5422],[32.79461,0.54371],[32.79509,0.54568],[32.79409,0.54933],[32.7943,0.55097],[32.80366,0.56713],[32.80553,0.57143],[32.80875,0.58844],[32.80928,0.60452],[32.81509,0.61394],[32.81712,0.61819],[32.82344,0.62624],[32.83381,0.6345],[32.84056,0.64162],[32.84532,0.64494],[32.85175,0.65094],[32.85948,0.65593],[32.86854,0.66347],[32.87148,0.66821],[32.88207,0.67821],[32.88697,0.68002],[32.89209,0.67994],[32.89701,0.6822],[32.90023,0.6821],[32.91216,0.68724],[32.91374,0.69281],[32.91326,0.69508],[32.91142,0.69676],[32.90357,0.69969],[32.9033,0.69993],[32.90449,0.70102]]}},{"type":"Feature","properties":{"name":"Gayaza - Kalagi","functional_class":"Class B National Road","surface_type":"Bituminous","length_km":20.154,"road_no":"B100"},"geometry":{"type":"LineString","coordinates":[[32.612,0.44812],[32.61177,0.45008],[32.61221,0.45125],[32.61924,0.4609],[32.62262,0.46285],[32.62387,0.46332],[32.62554,0.46319],[32.62843,0.4606],[32.63005,0.45997],[32.63777,0.46046],[32.64032,0.46109],[32.6418,0.46218],[32.64351,0.46625],[32.64545,0.46816],[32.647,0.46875],[32.64909,0.46876],[32.65404,0.46631],[32.65608,0.46629],[32.65753,0.46722],[32.66153,0.47208],[32.66669,0.47582],[32.67345,0.47538],[32.67471,0.476],[32.67677,0.47819],[32.68223,0.47892],[32.69168,0.47522],[32.69506,0.47242],[32.69902,0.47229],[32.70239,0.47059],[32.70484,0.47066],[32.70631,0.47158],[32.70912,0.47475],[32.70938,0.47598],[32.70894,0.4782],[32.70966,0.4797],[32.71119,0.48031],[32.71446,0.47983],[32.716,0.48074],[32.71771,0.48525],[32.71792,0.48857],[32.72017,0.49292],[32.7238,0.49366],[32.72714,0.49666],[32.72877,0.49752],[32.73363,0.497],[32.73573,0.49498],[32.73699,0.4944],[32.74071,0.49531],[32.74253,0.49663],[32.74379,0.49944],[32.74523,0.50109],[32.74902,0.50397]]}},{"type":"Feature","properties":{"name":"Njeru - Bukoloto","functional_class":"Class B National Road","surface_type":"Bituminous","length_km":42.591,"road_no":"B102"},"geometry":{"type":"LineString","coordinates":[[33.17827,0.44015],[33.17744,0.44202],[33.16977,0.44855],[33.16477,0.44928],[33.16334,0.45011],[33.16006,0.45535],[33.14975,0.46948],[33.13792,0.48297],[33.12805,0.49878],[33.1167,0.5095],[33.11245,0.51185],[33.09755,0.51552],[33.08581,0.52118],[33.07707,0.52155],[33.07116,0.52354],[33.06922,0.52563],[33.05416,0.55133],[33.03756,0.55955],[33.03597,0.56077],[33.0348,0.56284],[33.03098,0.57528],[33.0218,0.58899],[33.01837,0.59356],[33.01367,0.59588],[33.01179,0.59734],[33.00689,0.60366],[33.0023,0.61347],[32.99489,0.6315],[32.99305,0.63738],[32.99159,0.63972],[32.98791,0.64327],[32.9475,0.66492],[32.93868,0.66682],[32.93257,0.66981],[32.93005,0.67218],[32.92797,0.67682],[32.9264,0.67872],[32.92242,0.68132],[32.91831,0.68518],[32.91227,0.68734]]}},{"type":"Feature","properties":{"name":"Kayunga - Busana - Isimba","functional_class":"Class B National Road","surface_type":"Bituminous","length_km":20.157,"road_no":"B101"},"geometry":{"type":"LineString","coordinates":[[32.90448,0.70102],[32.91641,0.71102],[32.92215,0.71378],[32.93125,0.71586],[32.93314,0.71673],[32.93614,0.71943],[32.94713,0.73305],[32.9541,0.7379],[32.95924,0.73955],[32.96093,0.74067],[32.9673,0.75003],[32.96975,0.75261],[32.97479,0.75628],[32.98291,0.76492],[32.98564,0.76895],[32.99141,0.78033],[32.99432,0.78312],[33.00166,0.78571],[33.00572,0.78884],[33.01163,0.78688],[33.02342,0.7858],[33.02653,0.78429],[33.02931,0.78388],[33.03526,0.78008],[33.04415,0.77561],[33.04841,0.77563]]}},{"type":"Feature","properties":{"name":"Kakumiro - Nkondo - Kijaguza - Bulamagi- Kabaale swamp","functional_class":"Class B National Road","surface_type":"Bituminous","length_km":77,"road_no":"B203"},"geometry":{"type":"LineString","coordinates":[[31.32358,0.78178],[31.32419,0.7837],[31.3236,0.78831],[31.32879,0.7966],[31.33318,0.80721],[31.33396,0.81428],[31.33611,0.81714],[31.33655,0.81849],[31.33629,0.81996],[31.3328,0.82592],[31.33215,0.82812],[31.33218,0.83065],[31.33437,0.83631],[31.33484,0.84043],[31.33457,0.84365],[31.33312,0.84868],[31.33409,0.85664],[31.33403,0.86015],[31.33228,0.86846],[31.33224,0.87444],[31.33153,0.87657],[31.33023,0.87766],[31.32877,0.87806],[31.32114,0.87608],[31.31552,0.87937],[31.31337,0.87919],[31.30972,0.87761],[31.30832,0.87754],[31.305,0.87789],[31.30253,0.8794],[31.29988,0.8798],[31.29534,0.88259],[31.29091,0.88365],[31.28615,0.88887],[31.28493,0.88949],[31.27968,0.89033],[31.27665,0.89356],[31.2751,0.89454],[31.27286,0.89503],[31.26956,0.89704],[31.26679,0.89711],[31.26458,0.89856],[31.26014,0.899],[31.25752,0.90114],[31.25549,0.90384],[31.25107,0.90448],[31.24871,0.90875],[31.24702,0.91003],[31.24476,0.91074],[31.2422,0.91048],[31.24037,0.90945],[31.23704,0.90425],[31.23436,0.90302],[31.2323,0.89982],[31.23119,0.89902],[31.22408,0.89631],[31.21773,0.89129],[31.21356,0.88941],[31.20521,0.8887],[31.20384,0.88989],[31.20306,0.89237],[31.1994,0.89419],[31.1956,0.8944],[31.18974,0.89901],[31.18718,0.90298],[31.18353,0.90525],[31.17557,0.91332],[31.17183,0.91606],[31.16391,0.9254],[31.16185,0.93154],[31.16224,0.93481],[31.16183,0.93668],[31.16109,0.93794],[31.15494,0.94405],[31.15296,0.95355],[31.14963,0.95838],[31.15143,0.96644],[31.15062,0.97227],[31.151,0.97717],[31.15046,0.98065],[31.14899,0.98502],[31.14889,0.99064],[31.14745,0.99908],[31.1471,1.00463],[31.1451,1.01113],[31.15037,1.01861],[31.15253,1.02391],[31.16114,1.03241],[31.16272,1.03749],[31.16436,1.04057],[31.17263,1.05],[31.17376,1.05281],[31.17457,1.05953],[31.1756,1.06149],[31.17825,1.06372],[31.17945,1.06563],[31.18697,1.07231],[31.19114,1.08408],[31.19595,1.09439],[31.19789,1.09647],[31.20108,1.0984],[31.20628,1.1068],[31.2084,1.10942],[31.21246,1.11295],[31.21406,1.11764],[31.21527,1.11917],[31.22012,1.12234],[31.2273,1.12461],[31.23084,1.12491],[31.23892,1.12357],[31.24572,1.12464],[31.25483,1.12257],[31.25923,1.12034],[31.2626,1.11772],[31.26474,1.11706],[31.27813,1.13352],[31.2969,1.17708],[31.29667,1.18544],[31.29537,1.19539],[31.29343,1.20025],[31.2892,1.20728],[31.289,1.20877],[31.28967,1.2102]]}},{"type":"Feature","properties":{"name":"Mukono - Kalagi","functional_class":"Class B National Road","surface_type":"Bituminous","length_km":17.866,"road_no":"B101"},"geometry":{"type":"LineString","coordinates":[[32.75125,0.35836],[32.75473,0.36536],[32.75486,0.36994],[32.75662,0.37309],[32.75833,0.37444],[32.76514,0.37682],[32.76651,0.37808],[32.76734,0.37966],[32.76864,0.39019],[32.76803,0.39193],[32.76481,0.39685],[32.76399,0.4008],[32.76579,0.40522],[32.76973,0.40996],[32.7704,0.41251],[32.7686,0.42053],[32.76498,0.42522],[32.76113,0.43676],[32.76057,0.44835],[32.75954,0.45298],[32.75653,0.46026],[32.7525,0.46562],[32.75096,0.46903],[32.75137,0.47418],[32.75096,0.47952],[32.75109,0.49733],[32.74902,0.50397],[32.74939,0.50428]]}},{"type":"Feature","properties":{"name":"Nyendo - Villa Maria","functional_class":"Class B National Road","surface_type":"Bituminous","length_km":10.113,"road_no":"B103"},"geometry":{"type":"LineString","coordinates":[[31.75639,-0.30876],[31.75484,-0.30445],[31.752,-0.2997],[31.74617,-0.28342],[31.74594,-0.27957],[31.74774,-0.27642],[31.7478,-0.2731],[31.74705,-0.27254],[31.74151,-0.27145],[31.73763,-0.26896],[31.73384,-0.26284],[31.73129,-0.2573],[31.73423,-0.24483],[31.73611,-0.24263],[31.73916,-0.23714],[31.73752,-0.23116]]}},{"type":"Feature","properties":{"name":"Kasambya - Lusalira","functional_class":"Class B National Road","surface_type":"Unsealed","length_km":17.289,"road_no":"B103"},"geometry":{"type":"LineString","coordinates":[[31.22793,0.38069],[31.23158,0.38382],[31.23684,0.38672],[31.24056,0.39194],[31.24565,0.39338],[31.24768,0.39468],[31.2599,0.4055],[31.26826,0.40919],[31.27191,0.41299],[31.27854,0.41694],[31.28157,0.41962],[31.28817,0.42237],[31.29204,0.4281],[31.29168,0.43182],[31.2922,0.4377],[31.2906,0.44462],[31.2918,0.4524],[31.29145,0.45825],[31.28938,0.46389],[31.2862,0.46784],[31.28565,0.47441],[31.28405,0.47703],[31.2814,0.48368],[31.28261,0.48678],[31.28165,0.4891],[31.28201,0.49108],[31.28618,0.49727]]}},{"type":"Feature","properties":{"name":"Mubende - Kiboyo - Kakumiro","functional_class":"Class B National Road","surface_type":"Bituminous","length_km":30.499,"road_no":"B203"},"geometry":{"type":"LineString","coordinates":[[31.3891,0.56166],[31.38984,0.56582],[31.39319,0.5685],[31.39415,0.57086],[31.39383,0.57412],[31.39301,0.57631],[31.39326,0.5804],[31.39401,0.58263],[31.39426,0.58786],[31.39372,0.59037],[31.3962,0.59457],[31.39631,0.59551],[31.39244,0.60013],[31.39238,0.60134],[31.39337,0.60398],[31.39307,0.60752],[31.38984,0.61214],[31.38882,0.61584],[31.38494,0.62344],[31.38438,0.62589],[31.38556,0.62817],[31.38569,0.62974],[31.3834,0.63737],[31.36992,0.65215],[31.36812,0.65556],[31.36471,0.65613],[31.36177,0.66024],[31.35621,0.6626],[31.35406,0.66442],[31.35252,0.66505],[31.34505,0.6671],[31.34146,0.66581],[31.34001,0.6672],[31.33975,0.6711],[31.34035,0.67394],[31.33803,0.67985],[31.33827,0.68918],[31.34063,0.69352],[31.34073,0.69819],[31.34366,0.7027],[31.34531,0.70677],[31.34609,0.71025],[31.34373,0.71344],[31.34219,0.71418],[31.34041,0.71641],[31.33732,0.71826],[31.33711,0.7198],[31.33525,0.72265],[31.33212,0.7246],[31.32852,0.72808],[31.32756,0.7312],[31.32779,0.73499],[31.32717,0.73627],[31.32709,0.74148],[31.32591,0.74394],[31.32161,0.74971],[31.32102,0.75364],[31.3187,0.75838],[31.31554,0.76075],[31.31547,0.76181],[31.31854,0.76715],[31.3212,0.7715],[31.32325,0.77386],[31.32387,0.77942],[31.32358,0.78178]]}},{"type":"Feature","properties":{"name":"Kubiri round about - Gayaza","functional_class":"Class B National Road","surface_type":"Bituminous","length_km":13.346,"road_no":"B100"},"geometry":{"type":"LineString","coordinates":[[32.57146,0.34075],[32.57089,0.34923],[32.57659,0.36921],[32.57636,0.37547],[32.57714,0.38332],[32.58275,0.40028],[32.58434,0.40252],[32.59311,0.40816],[32.59438,0.40961],[32.60224,0.43747],[32.60332,0.4389],[32.6113,0.44559],[32.61194,0.44674],[32.612,0.44812]]}},{"type":"Feature","properties":{"name":"Nkonge - Kibula - Magege - Kasambya","functional_class":"Class B National Road","surface_type":"Unsealed","length_km":18.8,"road_no":"B103"},"geometry":{"type":"LineString","coordinates":[[31.18628,0.23455],[31.18649,0.23814],[31.1848,0.24543],[31.18298,0.26012],[31.18036,0.26307],[31.17956,0.26934],[31.18052,0.27471],[31.18034,0.2852],[31.18314,0.29123],[31.18371,0.2996],[31.18348,0.30328],[31.18494,0.3062],[31.1859,0.31066],[31.18464,0.31569],[31.18604,0.32341],[31.18937,0.32634],[31.19261,0.3274],[31.19426,0.3286],[31.19515,0.33299],[31.19458,0.33539],[31.19477,0.33766],[31.19607,0.34349],[31.19508,0.34767],[31.19759,0.35367],[31.20215,0.35677],[31.20422,0.36075],[31.20467,0.36303],[31.21049,0.36779],[31.21284,0.37081],[31.21945,0.37519],[31.2238,0.37745],[31.22793,0.38069]]}},{"type":"Feature","properties":{"name":"Kalerwe (Dual)","functional_class":"Class B National Road","surface_type":"Bituminous","length_km":1.725,"road_no":"B100N1"},"geometry":{"type":"LineString","coordinates":[[32.57298,0.35589],[32.57091,0.34891],[32.57183,0.34083]]}},{"type":"Feature","properties":{"name":"Sembabule - Lwemiyaga junction - Nkonge","functional_class":"Class B National Road","surface_type":"Unsealed","length_km":59.3,"road_no":"B103"},"geometry":{"type":"LineString","coordinates":[[31.46148,-0.08193],[31.44539,-0.07445],[31.43956,-0.07079],[31.42879,-0.06275],[31.42357,-0.06246],[31.42063,-0.06162],[31.41565,-0.06172],[31.40526,-0.05762],[31.39446,-0.05241],[31.37792,-0.04878],[31.34042,-0.03508],[31.32306,-0.02204],[31.31558,-0.01525],[31.30498,-0.00835],[31.28902,0.00519],[31.2854,0.00915],[31.28421,0.0096],[31.28004,0.00946],[31.27221,0.01364],[31.26945,0.01571],[31.26692,0.01934],[31.26417,0.02221],[31.25796,0.02507],[31.25323,0.02623],[31.24132,0.03184],[31.23464,0.03586],[31.22909,0.04103],[31.22397,0.04298],[31.22002,0.04564],[31.2155,0.04729],[31.21273,0.0466],[31.20778,0.04764],[31.20348,0.04995],[31.20035,0.05049],[31.19647,0.0526],[31.19459,0.05453],[31.193,0.05732],[31.19026,0.06044],[31.18708,0.06833],[31.18505,0.0704],[31.18246,0.07082],[31.18157,0.07149],[31.18032,0.07535],[31.17926,0.0769],[31.17898,0.07889],[31.17579,0.08155],[31.17385,0.08708],[31.17069,0.09088],[31.16835,0.09832],[31.16327,0.10077],[31.15948,0.10454],[31.15441,0.11173],[31.15449,0.11865],[31.15105,0.13029],[31.15114,0.13398],[31.14683,0.1424],[31.1451,0.14688],[31.14684,0.15165],[31.1488,0.15441],[31.14943,0.15736],[31.15461,0.16559],[31.1545,0.16834],[31.15382,0.17],[31.15213,0.17315],[31.14986,0.17519],[31.15068,0.18174],[31.15246,0.18312],[31.15264,0.18524],[31.15486,0.18675],[31.15693,0.19037],[31.16509,0.19502],[31.16581,0.1959],[31.16831,0.20603],[31.16996,0.20804],[31.17087,0.21017],[31.17076,0.21202],[31.17277,0.22158],[31.17583,0.22419],[31.17613,0.22512],[31.1776,0.22606],[31.17893,0.22792],[31.18463,0.23164],[31.18628,0.23455]]}},{"type":"Feature","properties":{"name":"Namunsi - Sironko","functional_class":"Class B National Road","surface_type":"Bituminous","length_km":21.805,"road_no":"B300"},"geometry":{"type":"LineString","coordinates":[[34.16845,1.12456],[34.17071,1.1252],[34.17173,1.12599],[34.17554,1.13344],[34.17812,1.13619],[34.18665,1.14082],[34.19879,1.14831],[34.20015,1.14996],[34.20033,1.15132],[34.19945,1.15608],[34.20004,1.15794],[34.20267,1.16209],[34.20284,1.16535],[34.20006,1.17065],[34.19482,1.17461],[34.19368,1.17652],[34.19377,1.18354],[34.19195,1.19737],[34.19263,1.20001],[34.19601,1.2042],[34.20077,1.20725],[34.20356,1.20812],[34.20641,1.20803],[34.21184,1.20665],[34.21993,1.20788],[34.22895,1.2158],[34.23026,1.21836],[34.23208,1.22044],[34.23666,1.2227],[34.24379,1.23005],[34.25312,1.23591],[34.25998,1.23643],[34.26189,1.23705],[34.27072,1.24284],[34.27234,1.2459]]}},{"type":"Feature","properties":{"name":"Buwenge - Kamuli","functional_class":"Class B National Road","surface_type":"Bituminous","length_km":32.633,"road_no":"B307"},"geometry":{"type":"LineString","coordinates":[[33.1715,0.64943],[33.1658,0.65566],[33.1648,0.65808],[33.1663,0.68153],[33.15195,0.73473],[33.14717,0.76],[33.14572,0.76871],[33.14515,0.78796],[33.14129,0.80651],[33.13864,0.83042],[33.13372,0.843],[33.12914,0.84877],[33.12461,0.85794],[33.12109,0.86721],[33.11075,0.88967],[33.10893,0.89501],[33.1079,0.90478],[33.108,0.90815],[33.10975,0.92294],[33.11136,0.93159]]}},{"type":"Feature","properties":{"name":"Tirinyi - Pallisa","functional_class":"Class B National Road","surface_type":"Bituminous","length_km":19.765,"road_no":"B305"},"geometry":{"type":"LineString","coordinates":[[33.76249,1.00092],[33.76191,1.02093],[33.76081,1.02734],[33.76017,1.03578],[33.75561,1.0586],[33.75459,1.07369],[33.75312,1.08025],[33.74893,1.08897],[33.74077,1.11799],[33.73676,1.12516],[33.73179,1.13048],[33.72561,1.13876],[33.7231,1.14477],[33.71734,1.1532],[33.71246,1.16508],[33.71098,1.1668],[33.71175,1.16724]]}},{"type":"Feature","properties":{"name":"Sironko - Muyembe","functional_class":"Class B National Road","surface_type":"Bituminous","length_km":10.46,"road_no":"B300"},"geometry":{"type":"LineString","coordinates":[[34.27234,1.2459],[34.27219,1.24826],[34.26982,1.25254],[34.26946,1.25499],[34.27436,1.27495],[34.27506,1.27746],[34.28125,1.28727],[34.28856,1.30101],[34.28881,1.30553],[34.29111,1.31915],[34.29156,1.3265],[34.29582,1.33349]]}},{"type":"Feature","properties":{"name":"Tororo(Malaba junction) - Busia","functional_class":"Class B National Road","surface_type":"Unsealed","length_km":24.235,"road_no":"B306"},"geometry":{"type":"LineString","coordinates":[[34.17194,0.66002],[34.17287,0.65723],[34.1719,0.64412],[34.17048,0.63593],[34.16899,0.63143],[34.16404,0.6245],[34.15069,0.61582],[34.12797,0.55538],[34.12685,0.53684],[34.10757,0.50582],[34.10362,0.50044],[34.09771,0.49363],[34.09644,0.48865],[34.09607,0.48071],[34.09268,0.47559],[34.08874,0.46641]]}},{"type":"Feature","properties":{"name":"Kapchorwa-Suam","functional_class":"Class B National Road","surface_type":"Bituminous","length_km":80.7,"road_no":"B304"},"geometry":{"type":"LineString","coordinates":[[34.4308,1.39068],[34.43727,1.3926],[34.44135,1.39445],[34.44134,1.3955],[34.43996,1.39792],[34.44028,1.40138],[34.43898,1.40409],[34.43952,1.40471],[34.44469,1.39973],[34.44948,1.39637],[34.45223,1.39797],[34.4531,1.40026],[34.45564,1.39978],[34.45862,1.40337],[34.46442,1.40589],[34.47095,1.40568],[34.47549,1.40454],[34.47879,1.40668],[34.48125,1.40742],[34.48334,1.40687],[34.48624,1.40844],[34.49025,1.40609],[34.49361,1.40485],[34.49527,1.40493],[34.50264,1.40267],[34.50819,1.40573],[34.50839,1.40631],[34.50682,1.41069],[34.5094,1.41302],[34.51283,1.41481],[34.51836,1.41481],[34.52009,1.41612],[34.52453,1.41814],[34.52784,1.41653],[34.53303,1.41706],[34.53977,1.41674],[34.5411,1.41459],[34.54239,1.41405],[34.54832,1.41568],[34.55021,1.41571],[34.55363,1.41947],[34.55534,1.4199],[34.55681,1.41886],[34.55907,1.41308],[34.55978,1.41252],[34.56185,1.41477],[34.56201,1.41769],[34.56333,1.41888],[34.56893,1.41577],[34.57956,1.41584],[34.58298,1.4167],[34.59045,1.41488],[34.59542,1.4178],[34.59828,1.4186],[34.60288,1.42224],[34.61336,1.4225],[34.61825,1.42091],[34.62204,1.41724],[34.62099,1.41373],[34.62224,1.4108],[34.62406,1.40891],[34.62435,1.40757],[34.62722,1.4077],[34.62905,1.40605],[34.62934,1.40052],[34.62498,1.39702],[34.62234,1.39409],[34.62315,1.39334],[34.62674,1.39326],[34.62727,1.39288],[34.62698,1.38891],[34.62772,1.38811],[34.63277,1.38885],[34.63051,1.38461],[34.63062,1.38065],[34.6292,1.37927],[34.62777,1.37886],[34.62744,1.37811],[34.6285,1.3764],[34.63009,1.37662],[34.63357,1.37528],[34.6333,1.37367],[34.63181,1.37201],[34.63026,1.3685],[34.63068,1.36804],[34.63326,1.36867],[34.63402,1.36803],[34.63403,1.36738],[34.63347,1.36616],[34.63105,1.36371],[34.63424,1.36307],[34.63515,1.3622],[34.63641,1.35988],[34.63437,1.35822],[34.63438,1.35772],[34.63852,1.35485],[34.63331,1.34775],[34.63562,1.34768],[34.6396,1.34854],[34.64056,1.3483],[34.64124,1.34724],[34.64323,1.34799],[34.64474,1.34717],[34.64646,1.34715],[34.64892,1.34352],[34.65177,1.34059],[34.65401,1.34061],[34.65718,1.34291],[34.65946,1.34302],[34.66168,1.34547],[34.66251,1.3458],[34.66305,1.34509],[34.66339,1.34218],[34.66212,1.33973],[34.66208,1.33652],[34.66287,1.33612],[34.66468,1.33693],[34.66559,1.33942],[34.66841,1.34169],[34.67276,1.34069],[34.67359,1.34184],[34.67356,1.34431],[34.67298,1.34571],[34.67365,1.34642],[34.68063,1.3469],[34.68111,1.34415],[34.68066,1.34155],[34.68576,1.34215],[34.68549,1.33971],[34.68584,1.33869],[34.68927,1.33481],[34.69085,1.34047],[34.69285,1.34322],[34.6954,1.3434],[34.69639,1.34168],[34.69744,1.34132],[34.69736,1.34211],[34.69845,1.34413],[34.7002,1.34553],[34.70318,1.3464],[34.70716,1.34438],[34.70953,1.34555],[34.70965,1.33927],[34.71244,1.33914],[34.71298,1.33733],[34.71209,1.33576],[34.71174,1.33315],[34.70694,1.33143],[34.70721,1.33016],[34.70655,1.32874],[34.70749,1.32782],[34.70798,1.32622],[34.70947,1.32585],[34.71049,1.32412],[34.71472,1.32322],[34.71721,1.32429],[34.715,1.3217],[34.71285,1.32049],[34.71108,1.32063],[34.71109,1.31992],[34.71174,1.31937],[34.70904,1.31809],[34.70705,1.31794],[34.70705,1.3164],[34.7081,1.31517],[34.70718,1.31371],[34.70879,1.31254],[34.70621,1.30838],[34.71164,1.30614],[34.7134,1.30893],[34.71601,1.30851],[34.72011,1.30899],[34.72061,1.30809],[34.7224,1.30853],[34.72368,1.30791],[34.72685,1.30848],[34.7291,1.30997],[34.73021,1.31015],[34.7318,1.30659],[34.73145,1.30519],[34.73234,1.30203],[34.73118,1.30254],[34.72972,1.3017],[34.72889,1.29989],[34.73006,1.30133],[34.731,1.30131],[34.7315,1.30002],[34.73065,1.3006],[34.72933,1.29846],[34.72789,1.29832],[34.727,1.29697],[34.73021,1.2899],[34.7345,1.29119],[34.73619,1.29115],[34.73931,1.28929],[34.73995,1.28815],[34.74097,1.28787],[34.74941,1.29189],[34.7523,1.29276],[34.75299,1.29239],[34.75277,1.29043],[34.75428,1.28327],[34.74794,1.27191],[34.74359,1.26716],[34.74417,1.26629],[34.7436,1.26505],[34.74429,1.26186],[34.74168,1.252],[34.73988,1.24999],[34.73897,1.24741],[34.73586,1.242],[34.73628,1.24114],[34.73834,1.24065],[34.7408,1.23748],[34.74205,1.23676],[34.74196,1.23512],[34.74041,1.23303],[34.74258,1.23109],[34.74271,1.22899],[34.74204,1.22736],[34.73995,1.22533],[34.73861,1.22188],[34.73267,1.21748],[34.73281,1.21638]]}},{"type":"Feature","properties":{"name":"Nawantale - Bukungu","functional_class":"Class B National Road","surface_type":"Unsealed","length_km":51.319,"road_no":"B307"},"geometry":{"type":"LineString","coordinates":[[33.09367,1.07303],[33.09263,1.08363],[33.09292,1.08784],[33.08884,1.10704],[33.08859,1.11458],[33.0893,1.12134],[33.08893,1.12573],[33.08751,1.12987],[33.08386,1.1356],[33.0819,1.14004],[33.08152,1.15043],[33.07902,1.16871],[33.07814,1.17265],[33.07592,1.17798],[33.07319,1.18714],[33.07142,1.20349],[33.06162,1.21321],[33.05747,1.22231],[33.05234,1.23051],[33.05075,1.23551],[33.04498,1.24779],[33.0428,1.25139],[33.03267,1.26347],[33.02975,1.27013],[33.02744,1.27412],[33.02636,1.27512],[33.02397,1.27599],[33.02144,1.27569],[33.02002,1.27608],[33.01409,1.2799],[33.00593,1.28681],[32.99936,1.2947],[32.99874,1.29666],[32.99791,1.30762],[32.99701,1.31234],[32.98984,1.33464],[32.98811,1.33707],[32.98636,1.34389],[32.98155,1.34623],[32.97098,1.35313],[32.95984,1.36175],[32.95775,1.36255],[32.9452,1.36425],[32.93817,1.36661],[32.9331,1.36752],[32.9278,1.3711],[32.89868,1.39659],[32.89565,1.40084],[32.89181,1.41286],[32.88983,1.4163],[32.86998,1.43438],[32.86878,1.43721]]}},{"type":"Feature","properties":{"name":"Kamuli - Nawantale","functional_class":"Class B National Road","surface_type":"Unsealed","length_km":15.86,"road_no":"B307"},"geometry":{"type":"LineString","coordinates":[[33.11136,0.93159],[33.11259,0.94128],[33.1119,0.94965],[33.10756,0.96504],[33.10461,0.98662],[33.10141,0.99967],[33.09597,1.04088],[33.09367,1.07303]]}},{"type":"Feature","properties":{"name":"Pallisa - Kanyago Bridge","functional_class":"Class B National Road","surface_type":"Bituminous","length_km":21.681,"road_no":"B305"},"geometry":{"type":"LineString","coordinates":[[33.71175,1.16724],[33.7255,1.17604],[33.73331,1.18232],[33.74495,1.18908],[33.74904,1.19044],[33.76025,1.19974],[33.7729,1.20841],[33.78005,1.21138],[33.78985,1.21463],[33.8388,1.22826],[33.84574,1.23122],[33.85769,1.2428],[33.86282,1.24857],[33.87241,1.26398],[33.8727,1.26562]]}},{"type":"Feature","properties":{"name":"Muyembe - Namalu","functional_class":"Class B National Road","surface_type":"Unsealed","length_km":71.655,"road_no":"B300"},"geometry":{"type":"LineString","coordinates":[[34.29582,1.33349],[34.29953,1.33933],[34.30103,1.34355],[34.30248,1.35092],[34.3131,1.37942],[34.31666,1.3881],[34.32037,1.39453],[34.32137,1.39561],[34.32664,1.39859],[34.3465,1.40776],[34.35283,1.42241],[34.36571,1.44144],[34.36978,1.44661],[34.41617,1.47955],[34.44221,1.4993],[34.45715,1.50531],[34.46275,1.50991],[34.4918,1.52713],[34.49286,1.52882],[34.49459,1.54283],[34.50187,1.55675],[34.5034,1.55814],[34.51903,1.5681],[34.53222,1.57294],[34.53344,1.57394],[34.54142,1.59071],[34.55692,1.64508],[34.55839,1.64892],[34.56869,1.66592],[34.60042,1.71554],[34.60217,1.7196],[34.6124,1.75292],[34.61235,1.75396],[34.59897,1.78719],[34.59362,1.80713],[34.59102,1.81498],[34.58529,1.83009],[34.5838,1.83208],[34.58221,1.84061]]}},{"type":"Feature","properties":{"name":"Isimba - Mbulamuti - Kamuli","functional_class":"Class B National Road","surface_type":"Unsealed","length_km":13.531,"road_no":"B101"},"geometry":{"type":"LineString","coordinates":[[33.04354,0.77587],[33.04525,0.77544],[33.0515,0.77587],[33.06982,0.78078],[33.0678,0.78429],[33.05807,0.79785],[33.05229,0.81065],[33.04007,0.8229],[33.04072,0.82553],[33.04523,0.83413],[33.04692,0.8393],[33.0491,0.83956],[33.04958,0.84245],[33.05851,0.85367],[33.06942,0.87086],[33.08047,0.8816],[33.09194,0.89071],[33.09739,0.89804],[33.09867,0.90195],[33.10431,0.90825],[33.10869,0.91455]]}},{"type":"Feature","properties":{"name":"Jinja(kubiri round about)-Buwenge","functional_class":"Class B National Road","surface_type":"Bituminous","length_km":23.16,"road_no":"B307"},"geometry":{"type":"LineString","coordinates":[[33.21921,0.45586],[33.21129,0.47247],[33.2113,0.48031],[33.21181,0.48241],[33.21536,0.48913],[33.21967,0.50976],[33.22293,0.54446],[33.21043,0.56888],[33.19558,0.59956],[33.17516,0.64526],[33.1715,0.64943]]}},{"type":"Feature","properties":{"name":"Namutere - Busia","functional_class":"Class B National Road","surface_type":"Bituminous","length_km":16.905,"road_no":"B308"},"geometry":{"type":"LineString","coordinates":[[33.96772,0.52506],[33.96923,0.51661],[33.97699,0.50843],[33.98027,0.50605],[33.99328,0.49924],[34.00872,0.48616],[34.013,0.48357],[34.02722,0.47839],[34.05385,0.47341],[34.06829,0.47339],[34.07264,0.47294],[34.07809,0.47163],[34.08967,0.46605],[34.09851,0.46545]]}},{"type":"Feature","properties":{"name":"Muyembe - Kaserem - Kapchorwa","functional_class":"Class B National Road","surface_type":"Bituminous","length_km":24.68,"road_no":"B304"},"geometry":{"type":"LineString","coordinates":[[34.29736,1.33582],[34.30172,1.33397],[34.30899,1.32974],[34.31119,1.32944],[34.31309,1.33035],[34.31525,1.33353],[34.31781,1.33529],[34.31872,1.33764],[34.31873,1.33947],[34.31962,1.33979],[34.32043,1.33836],[34.32276,1.33702],[34.32293,1.3361],[34.32217,1.33466],[34.32219,1.33363],[34.326,1.32888],[34.32919,1.32751],[34.33019,1.32508],[34.33116,1.32405],[34.33898,1.31945],[34.34085,1.31906],[34.34278,1.31981],[34.34365,1.3213],[34.34554,1.32253],[34.35257,1.32425],[34.35583,1.32654],[34.35784,1.33345],[34.358,1.33621],[34.36039,1.34163],[34.36086,1.34131],[34.36061,1.33788],[34.36103,1.33504],[34.3631,1.33261],[34.36591,1.33221],[34.36798,1.3326],[34.37053,1.334],[34.37319,1.33403],[34.3783,1.33536],[34.3793,1.33504],[34.38153,1.33295],[34.3834,1.33311],[34.38365,1.33373],[34.382,1.33678],[34.38258,1.33958],[34.38067,1.34152],[34.38148,1.34512],[34.37967,1.34818],[34.37958,1.34916],[34.38072,1.35069],[34.3829,1.35135],[34.38415,1.3526],[34.38678,1.35222],[34.38748,1.35262],[34.39009,1.35771],[34.38896,1.35961],[34.38875,1.36353],[34.39187,1.36867],[34.3972,1.37311],[34.40063,1.37458],[34.40078,1.37613],[34.40253,1.37899],[34.40478,1.38015],[34.40809,1.37956],[34.41089,1.38205],[34.41865,1.38313],[34.42255,1.38483],[34.42634,1.38829],[34.4308,1.39068]]}},{"type":"Feature","properties":{"name":"Kanyago Bridge - Kumi","functional_class":"Class B National Road","surface_type":"Bituminous","length_km":25.882,"road_no":"B305"},"geometry":{"type":"LineString","coordinates":[[33.87268,1.26554],[33.873,1.26985],[33.87122,1.2736],[33.87001,1.2805],[33.87217,1.2899],[33.88738,1.32404],[33.90906,1.36975],[33.91453,1.38542],[33.93285,1.46577],[33.93144,1.47804],[33.93028,1.4812],[33.93071,1.4871]]}},{"type":"Feature","properties":{"name":"Iriri - Akisim (Lorengechora) - Ariamoi - Nadunget","functional_class":"Class B National Road","surface_type":"Bituminous","length_km":68.814,"road_no":"B303"},"geometry":{"type":"LineString","coordinates":[[34.19595,2.09217],[34.2081,2.09401],[34.22103,2.09682],[34.22489,2.09853],[34.22635,2.09978],[34.22716,2.10454],[34.22916,2.10988],[34.22753,2.11312],[34.22562,2.11974],[34.22557,2.1223],[34.23037,2.1371],[34.23257,2.15503],[34.23493,2.16245],[34.23766,2.16551],[34.23832,2.16701],[34.23862,2.17734],[34.24102,2.18692],[34.24415,2.20487],[34.24507,2.20666],[34.26017,2.22532],[34.26933,2.24236],[34.2754,2.24902],[34.29228,2.27131],[34.3081,2.28806],[34.32123,2.30073],[34.34109,2.31585],[34.34663,2.31934],[34.35203,2.3251],[34.36106,2.33695],[34.36403,2.34006],[34.36831,2.34334],[34.37523,2.35113],[34.37628,2.35327],[34.38191,2.37359],[34.39313,2.38793],[34.4226,2.42299],[34.42559,2.42552],[34.42747,2.4261],[34.46539,2.42132],[34.46762,2.42187],[34.46975,2.42346],[34.47647,2.43111],[34.47891,2.43911],[34.47875,2.44251],[34.47259,2.45263],[34.47248,2.45415],[34.47442,2.45722],[34.49514,2.47624],[34.50187,2.48071],[34.51313,2.48594],[34.52064,2.48864],[34.53139,2.49072],[34.54278,2.49388],[34.5511,2.49969],[34.56499,2.50427]]}},{"type":"Feature","properties":{"name":"Kotido - Apaan - Kabong","functional_class":"Class B National Road","surface_type":"Unsealed","length_km":98.98,"road_no":"B301"},"geometry":{"type":"LineString","coordinates":[[34.07793,3.01007],[34.07925,3.01398],[34.08124,3.01575],[34.08479,3.02037],[34.08856,3.02391],[34.08888,3.02801],[34.0934,3.03955],[34.09341,3.0433],[34.09212,3.04909],[34.09206,3.05263],[34.0934,3.0553],[34.1012,3.06464],[34.10217,3.06662],[34.10458,3.07616],[34.10443,3.07914],[34.10898,3.09621],[34.10999,3.1085],[34.11404,3.1159],[34.12219,3.13351],[34.124,3.13821],[34.12477,3.14274],[34.12518,3.15032],[34.12414,3.16172],[34.12473,3.16541],[34.12392,3.16753],[34.12237,3.17621],[34.12143,3.18912],[34.12266,3.19886],[34.12583,3.2104],[34.12699,3.22812],[34.12628,3.23538],[34.12489,3.24068],[34.12374,3.25504],[34.12149,3.26567],[34.12256,3.27512],[34.12634,3.28226],[34.12739,3.28668],[34.12773,3.29527],[34.12897,3.29958],[34.1283,3.30404],[34.1289,3.3095],[34.12619,3.3184],[34.1228,3.32535],[34.11876,3.32983],[34.11899,3.33256],[34.12065,3.33424],[34.12156,3.33648],[34.12004,3.34039],[34.11729,3.34495],[34.11719,3.3461],[34.12168,3.35839],[34.1236,3.36614],[34.1245,3.36697],[34.12639,3.36739],[34.12717,3.36834],[34.13551,3.39439],[34.1392,3.40038],[34.14188,3.40666],[34.14429,3.4098],[34.14641,3.41422],[34.14593,3.41878],[34.14252,3.42621],[34.14503,3.43913],[34.14917,3.44165],[34.15755,3.45242],[34.16255,3.46339],[34.16669,3.46735],[34.16674,3.47281],[34.16805,3.47616],[34.16772,3.47958],[34.1719,3.48894],[34.17519,3.49267],[34.17544,3.49498],[34.17428,3.49628],[34.17028,3.49548],[34.1689,3.49585],[34.16682,3.49728],[34.16462,3.501],[34.1621,3.50296],[34.15737,3.50323],[34.15321,3.50521],[34.14497,3.50475],[34.14351,3.5052],[34.13757,3.50919],[34.13269,3.51411],[34.12958,3.51814],[34.12841,3.52173],[34.12561,3.52668],[34.12323,3.52781],[34.12277,3.52948],[34.12293,3.53257],[34.1219,3.53798],[34.11849,3.54368],[34.11703,3.54785],[34.11348,3.55188],[34.11277,3.55377],[34.11297,3.55626],[34.11143,3.55871],[34.11206,3.56025],[34.11476,3.56214],[34.11532,3.56517],[34.11963,3.57378],[34.11883,3.57472],[34.11264,3.57562],[34.11387,3.58154],[34.1136,3.58352],[34.11182,3.58484],[34.10941,3.5851],[34.10759,3.58601],[34.10707,3.59219],[34.10464,3.59728],[34.10349,3.5984],[34.0968,3.60224],[34.09649,3.60373],[34.09712,3.60655],[34.09654,3.60893],[34.09532,3.61081],[34.09276,3.61199],[34.09185,3.61423],[34.09184,3.61661],[34.09286,3.62022],[34.09203,3.62341],[34.0906,3.62612],[34.08844,3.62828],[34.08612,3.63571],[34.08183,3.6437],[34.07843,3.64571],[34.07468,3.64266],[34.07212,3.64253],[34.05926,3.63571],[34.05379,3.63423],[34.04924,3.63381],[34.04736,3.63419],[34.04346,3.63704],[34.0414,3.64131],[34.03785,3.64493],[34.03617,3.6464],[34.03338,3.64717],[34.02788,3.65045],[34.02129,3.65815],[33.99683,3.66735],[33.99391,3.6668],[33.99268,3.66989],[33.98177,3.67463],[33.9665,3.67439],[33.9622,3.67533],[33.95649,3.67963],[33.95139,3.68471],[33.94981,3.68565]]}},{"type":"Feature","properties":{"name":"Soroti - Arapai","functional_class":"Class B National Road","surface_type":"Bituminous","length_km":7.999,"road_no":"B303"},"geometry":{"type":"LineString","coordinates":[[33.61668,1.71535],[33.61645,1.71912],[33.61242,1.71927],[33.61187,1.71994],[33.61417,1.72739],[33.61783,1.76024],[33.61867,1.76252],[33.6287,1.77989]]}},{"type":"Feature","properties":{"name":"Ariamoi - Kaladonapal - Kaperimoru","functional_class":"Class B National Road","surface_type":"Unsealed","length_km":83.373,"road_no":"B301"},"geometry":{"type":"LineString","coordinates":[[34.54974,2.49895],[34.5476,2.50284],[34.53911,2.50872],[34.53356,2.51413],[34.53043,2.51509],[34.5238,2.51898],[34.51201,2.51842],[34.50845,2.51958],[34.4981,2.52765],[34.49596,2.53035],[34.49098,2.53386],[34.48069,2.53437],[34.4709,2.52614],[34.46384,2.52232],[34.459,2.52061],[34.45253,2.52038],[34.4474,2.51843],[34.44581,2.51832],[34.43438,2.51989],[34.4298,2.52199],[34.41917,2.52541],[34.41689,2.5268],[34.41458,2.52972],[34.41,2.53181],[34.40632,2.53436],[34.38307,2.54411],[34.37817,2.5449],[34.37352,2.54467],[34.37148,2.5455],[34.36864,2.5476],[34.36115,2.54911],[34.35939,2.55072],[34.35675,2.55693],[34.35427,2.56029],[34.32836,2.58403],[34.32702,2.5864],[34.3266,2.58992],[34.32535,2.59382],[34.32488,2.59871],[34.32393,2.60048],[34.32016,2.60326],[34.30555,2.60695],[34.30382,2.60825],[34.30329,2.60999],[34.30374,2.61686],[34.30268,2.62132],[34.30286,2.62551],[34.30174,2.63071],[34.3021,2.63369],[34.30421,2.64077],[34.30466,2.64642],[34.30633,2.65354],[34.30543,2.65598],[34.30002,2.66213],[34.29916,2.66476],[34.30063,2.66999],[34.30086,2.67503],[34.30204,2.68054],[34.30181,2.68232],[34.29903,2.68907],[34.29966,2.69198],[34.30167,2.69548],[34.30132,2.69934],[34.29673,2.70619],[34.29276,2.71851],[34.29048,2.72399],[34.28681,2.7288],[34.28468,2.73426],[34.28202,2.73776],[34.27999,2.74325],[34.27695,2.75594],[34.27352,2.76148],[34.26976,2.77251],[34.26859,2.77423],[34.26469,2.77767],[34.26195,2.7827],[34.261,2.78579],[34.25851,2.79987],[34.25757,2.80968],[34.25843,2.81452],[34.25791,2.81981],[34.25437,2.82538],[34.25163,2.82872],[34.24963,2.83564],[34.24577,2.84047],[34.24109,2.84229],[34.2326,2.84833],[34.22453,2.85158],[34.21923,2.85674],[34.2182,2.85971],[34.21331,2.86182],[34.21169,2.86397],[34.21197,2.86579],[34.22059,2.88606],[34.22138,2.89328],[34.22083,2.89931],[34.2222,2.9047],[34.22116,2.90866],[34.22453,2.9144],[34.2233,2.91719],[34.22208,2.92199],[34.22253,2.92493],[34.22414,2.92804],[34.22423,2.92951],[34.2224,2.93239],[34.22149,2.93729],[34.21869,2.94309],[34.21843,2.94538],[34.2236,2.95107],[34.2272,2.9535],[34.22772,2.95691],[34.22711,2.96192],[34.22369,2.9682],[34.22283,2.97105],[34.22222,2.97151],[34.21607,2.9703],[34.21227,2.96746],[34.20946,2.96689],[34.20512,2.96503],[34.20024,2.96593],[34.19238,2.9712],[34.19056,2.97123]]}},{"type":"Feature","properties":{"name":"Kotido - Abim","functional_class":"Class B National Road","surface_type":"Unsealed","length_km":63.821,"road_no":"B302"},"geometry":{"type":"LineString","coordinates":[[34.07792,3.01006],[34.07611,3.01038],[34.06803,3.00634],[34.06279,3.00504],[34.05955,3.00355],[34.04861,3.00416],[34.04254,3.00757],[34.04018,3.01196],[34.03825,3.0135],[34.03691,3.01368],[34.03524,3.01316],[34.03078,3.0104],[34.02831,3.0117],[34.02513,3.01045],[34.01978,3.01029],[34.0187,3.00937],[34.01253,2.99945],[34.00926,2.999],[34.00686,2.99927],[34.00091,2.99719],[33.97903,2.98658],[33.97707,2.98639],[33.95913,2.98916],[33.95083,2.9796],[33.90749,2.95118],[33.88698,2.94591],[33.88611,2.94482],[33.88135,2.93416],[33.86866,2.92579],[33.8663,2.92331],[33.85049,2.91645],[33.84457,2.91499],[33.83893,2.91186],[33.83694,2.90924],[33.8367,2.90628],[33.83447,2.90041],[33.82613,2.88961],[33.80216,2.87258],[33.79342,2.86968],[33.78606,2.86312],[33.78548,2.8613],[33.78571,2.8561],[33.78277,2.8448],[33.77967,2.84212],[33.77934,2.83897],[33.77849,2.8373],[33.77869,2.83281],[33.77601,2.82931],[33.77412,2.82823],[33.76613,2.82774],[33.76299,2.82973],[33.75422,2.83031],[33.75254,2.82699],[33.75153,2.82189],[33.74743,2.8144],[33.74124,2.8124],[33.72484,2.79868],[33.69859,2.77898],[33.69474,2.77424],[33.68727,2.76194],[33.67957,2.75226],[33.66568,2.73113],[33.65981,2.71145]]}},{"type":"Feature","properties":{"name":"Lokapel - Ariamoi","functional_class":"Class B National Road","surface_type":"Bituminous","length_km":45.803,"road_no":"B300"},"geometry":{"type":"LineString","coordinates":[[34.69352,2.14866],[34.6841,2.15898],[34.68282,2.16132],[34.68279,2.16479],[34.67922,2.18077],[34.67972,2.18226],[34.68164,2.1847],[34.68161,2.18717],[34.67969,2.19099],[34.67661,2.19395],[34.67561,2.19616],[34.6749,2.20104],[34.67304,2.20322],[34.6715,2.2061],[34.66889,2.20822],[34.66689,2.21115],[34.66222,2.21204],[34.65903,2.21555],[34.65795,2.2259],[34.65433,2.23129],[34.65443,2.23348],[34.65237,2.23826],[34.65195,2.24229],[34.64807,2.24722],[34.64495,2.25467],[34.64171,2.25953],[34.63908,2.26615],[34.63404,2.27347],[34.63278,2.27892],[34.63125,2.28299],[34.62338,2.29457],[34.6195,2.29718],[34.61341,2.30257],[34.6125,2.30401],[34.61195,2.30686],[34.61014,2.30924],[34.60736,2.31161],[34.6066,2.3151],[34.60366,2.31812],[34.60114,2.32336],[34.60046,2.32657],[34.60019,2.33198],[34.59671,2.3414],[34.59184,2.34443],[34.5903,2.34847],[34.58949,2.34939],[34.5879,2.34999],[34.58171,2.3504],[34.57886,2.35366],[34.57663,2.36836],[34.57675,2.37213],[34.57766,2.37711],[34.57411,2.38927],[34.57272,2.40073],[34.5733,2.40274],[34.57748,2.41054],[34.57887,2.41447],[34.58048,2.42324],[34.58033,2.4303],[34.57712,2.43341],[34.57349,2.43905],[34.57061,2.44919],[34.57156,2.45558],[34.5741,2.46297],[34.57447,2.47222],[34.57369,2.47713],[34.57034,2.48098],[34.56809,2.48598],[34.56771,2.48862],[34.56464,2.49516],[34.56387,2.49887],[34.56489,2.50397]]}},{"type":"Feature","properties":{"name":"Arapai - Katakwi - Iriri","functional_class":"Class B National Road","surface_type":"Bituminous","length_km":81.862,"road_no":"B303"},"geometry":{"type":"LineString","coordinates":[[33.6287,1.77989],[33.65265,1.82205],[33.66296,1.83555],[33.67133,1.84371],[33.6712,1.84768],[33.67226,1.8495],[33.67411,1.85137],[33.68044,1.85565],[33.69367,1.86372],[33.73168,1.86681],[33.75351,1.86697],[33.76816,1.86544],[33.77652,1.86615],[33.79546,1.86297],[33.81654,1.86336],[33.83995,1.85643],[33.89151,1.87297],[33.92589,1.88581],[33.93061,1.88951],[33.96049,1.91804],[33.96158,1.91857],[33.97179,1.91834],[33.99138,1.92028],[33.99781,1.92005],[34.00781,1.91806],[34.03107,1.91214],[34.03475,1.91185],[34.0373,1.91229],[34.09632,1.95267],[34.09697,1.95406],[34.09687,1.95701],[34.08807,1.98256],[34.08524,1.99214],[34.10854,2.01543],[34.19595,2.09217]]}},{"type":"Feature","properties":{"name":"Kapelimoru - Kotido","functional_class":"Class B National Road","surface_type":"Unsealed","length_km":19.038,"road_no":"B301"},"geometry":{"type":"LineString","coordinates":[[34.19056,2.97123],[34.18086,2.97099],[34.17431,2.96947],[34.16573,2.97101],[34.14707,2.96515],[34.14155,2.96252],[34.13382,2.95607],[34.1314,2.95583],[34.12906,2.95699],[34.1205,2.96555],[34.11739,2.97001],[34.11343,2.97386],[34.11135,2.97781],[34.11132,2.98036],[34.11257,2.98472],[34.11281,2.9877],[34.11695,2.99922],[34.11593,3.00381],[34.11445,3.00621],[34.11275,3.00643],[34.10691,3.00281],[34.10273,2.99945],[34.08979,2.99519],[34.08673,2.99646],[34.08558,2.99757],[34.08436,2.99931],[34.08063,3.0077],[34.07793,3.01007]]}},{"type":"Feature","properties":{"name":"Ariamoi - Moroto","functional_class":"Class B National Road","surface_type":"Bituminous","length_km":10.997,"road_no":"B300"},"geometry":{"type":"LineString","coordinates":[[34.56489,2.50397],[34.56717,2.50517],[34.58444,2.5099],[34.59137,2.51132],[34.59736,2.51152],[34.60214,2.5127],[34.62183,2.52088],[34.63766,2.52566],[34.64562,2.52894],[34.6511,2.53012],[34.65617,2.53311],[34.6577,2.533]]}},{"type":"Feature","properties":{"name":"Namalu - Chosan - Lokapel","functional_class":"Class B National Road","surface_type":"Bituminous","length_km":58.791,"road_no":"B300"},"geometry":{"type":"LineString","coordinates":[[34.58222,1.84061],[34.58186,1.84332],[34.58396,1.84584],[34.58762,1.84857],[34.62726,1.85946],[34.62834,1.8607],[34.63096,1.86946],[34.63402,1.86875],[34.6356,1.86714],[34.63957,1.86483],[34.64107,1.86302],[34.6482,1.85984],[34.65467,1.85191],[34.65616,1.85069],[34.65859,1.85049],[34.668,1.84003],[34.67185,1.83932],[34.68099,1.83393],[34.68248,1.83245],[34.68434,1.83191],[34.68512,1.83068],[34.68797,1.83108],[34.69206,1.83327],[34.69677,1.83319],[34.69722,1.83511],[34.69784,1.83468],[34.6979,1.83638],[34.69866,1.8364],[34.69914,1.83703],[34.70069,1.83335],[34.70131,1.83341],[34.7015,1.83285],[34.70259,1.83336],[34.70342,1.82972],[34.70701,1.82957],[34.70846,1.8275],[34.71059,1.82778],[34.71295,1.82991],[34.7188,1.83007],[34.71928,1.83535],[34.72209,1.83827],[34.71951,1.84148],[34.71929,1.84252],[34.72115,1.85122],[34.72346,1.85771],[34.72367,1.86501],[34.72449,1.86778],[34.72546,1.8774],[34.72542,1.88961],[34.72751,1.89604],[34.72947,1.90445],[34.72989,1.91075],[34.73119,1.91267],[34.73557,1.91529],[34.73886,1.92939],[34.74075,1.93233],[34.74185,1.93757],[34.73934,1.94584],[34.74131,1.9553],[34.74068,1.95697],[34.73627,1.9628],[34.73345,1.96533],[34.73268,1.96947],[34.72926,1.97559],[34.72719,1.97801],[34.72509,1.98279],[34.72141,1.98392],[34.72023,1.98566],[34.72109,1.9909],[34.72633,2.00088],[34.72816,2.0058],[34.72971,2.01587],[34.73117,2.02038],[34.73177,2.0372],[34.73314,2.04155],[34.73125,2.04719],[34.72814,2.05278],[34.72655,2.06054],[34.72498,2.06398],[34.72645,2.07729],[34.7262,2.08242],[34.72387,2.08757],[34.71961,2.09195],[34.71705,2.09554],[34.71739,2.10132],[34.71398,2.10865],[34.71288,2.11278],[34.71333,2.11723],[34.71231,2.12172],[34.71189,2.12307],[34.71023,2.12467],[34.70864,2.12776],[34.70698,2.13413],[34.70702,2.13712],[34.7065,2.13842],[34.70554,2.13936],[34.69945,2.14262],[34.69352,2.14866]]}},{"type":"Feature","properties":{"name":"Yumbe - Manibe","functional_class":"Class B National Road","surface_type":"Unsealed","length_km":77.123,"road_no":"B250"},"geometry":{"type":"LineString","coordinates":[[31.24757,3.46995],[31.24692,3.46891],[31.24725,3.46198],[31.24966,3.45398],[31.25405,3.44753],[31.25502,3.44056],[31.25798,3.43749],[31.27349,3.42683],[31.27508,3.42462],[31.27694,3.41359],[31.28519,3.4095],[31.28632,3.40828],[31.2865,3.40658],[31.28426,3.39755],[31.28341,3.3879],[31.28242,3.38535],[31.27829,3.38259],[31.27715,3.38084],[31.27315,3.37856],[31.26514,3.37611],[31.26278,3.3748],[31.26224,3.37179],[31.26298,3.36368],[31.25636,3.35241],[31.24854,3.34495],[31.24569,3.34379],[31.24242,3.34331],[31.23677,3.33982],[31.2326,3.33617],[31.22797,3.33444],[31.22608,3.33483],[31.22076,3.33794],[31.21674,3.34221],[31.21521,3.34279],[31.21385,3.34262],[31.20361,3.33699],[31.19811,3.33521],[31.1934,3.33463],[31.1908,3.33374],[31.18398,3.32908],[31.17926,3.32655],[31.17832,3.32427],[31.17858,3.31401],[31.178,3.30923],[31.17554,3.3035],[31.16878,3.29253],[31.16542,3.28852],[31.15815,3.28631],[31.1554,3.28476],[31.14553,3.27181],[31.14149,3.26811],[31.13832,3.2666],[31.1326,3.2652],[31.12475,3.26984],[31.11906,3.27564],[31.11688,3.27646],[31.11462,3.27571],[31.11468,3.26901],[31.11871,3.2622],[31.11907,3.25869],[31.11986,3.25651],[31.12129,3.25444],[31.12462,3.25173],[31.12483,3.25097],[31.12465,3.25014],[31.12246,3.24785],[31.11939,3.24155],[31.11925,3.23781],[31.12132,3.23398],[31.12166,3.22659],[31.11858,3.21632],[31.1159,3.21277],[31.11531,3.21019],[31.11522,3.20511],[31.11423,3.20308],[31.11302,3.2021],[31.11066,3.20147],[31.10564,3.19827],[31.10422,3.19645],[31.10314,3.19356],[31.10224,3.19272],[31.09749,3.19108],[31.09401,3.18828],[31.09097,3.18682],[31.08863,3.18427],[31.08595,3.17878],[31.08349,3.17841],[31.08054,3.17883],[31.07703,3.18136],[31.07418,3.18251],[31.07073,3.18612],[31.0634,3.18454],[31.06193,3.18472],[31.05937,3.18608],[31.04806,3.1846],[31.04676,3.18391],[31.04055,3.17566],[31.03276,3.16811],[31.0316,3.16765],[31.02856,3.16811],[31.02482,3.16779],[31.02232,3.16624],[31.01946,3.16144],[31.01708,3.1595],[31.0143,3.15915],[31.01116,3.15509],[31.00865,3.1452],[31.00641,3.14086],[31.00313,3.13589],[30.9995,3.13249],[30.9976,3.13],[30.99596,3.12431],[30.99508,3.11854],[30.99117,3.1108],[30.98514,3.10421],[30.98292,3.10273],[30.97863,3.10068],[30.97253,3.09891],[30.96752,3.09903],[30.96394,3.09766],[30.95734,3.0909],[30.95512,3.08197],[30.95355,3.07991],[30.95161,3.07828],[30.94666,3.0773],[30.94049,3.07467],[30.93912,3.07086],[30.93852,3.06649],[30.93713,3.06396],[30.92916,3.06109]]}},{"type":"Feature","properties":{"name":"Kitgum - Madi Opei","functional_class":"Class B National Road","surface_type":"Bituminous","length_km":45.456,"road_no":"B252"},"geometry":{"type":"LineString","coordinates":[[32.88013,3.3034],[32.88049,3.30387],[32.88619,3.30302],[32.89031,3.30765],[32.89672,3.3166],[32.90277,3.32377],[32.90857,3.32945],[32.92024,3.33905],[32.93134,3.3499],[32.95153,3.36383],[32.97143,3.37458],[32.981,3.37891],[32.98743,3.38512],[32.99715,3.39211],[32.99975,3.39519],[33.00228,3.3965],[33.00606,3.39659],[33.01377,3.39871],[33.0193,3.40555],[33.02632,3.41623],[33.0309,3.42029],[33.03436,3.43602],[33.03812,3.44711],[33.05081,3.47401],[33.06188,3.49441],[33.0635,3.50329],[33.06825,3.51859],[33.07222,3.53416],[33.0731,3.5406],[33.07236,3.55002],[33.0729,3.55442],[33.07639,3.56565],[33.0799,3.5824],[33.09188,3.61822],[33.0919,3.62228]]}},{"type":"Feature","properties":{"name":"Masindi Port-Akokoro-Apac-Aduku","functional_class":"Class B National Road","surface_type":"Unsealed","length_km":103.421,"road_no":"B253"},"geometry":{"type":"LineString","coordinates":[[32.09293,1.6954],[32.09936,1.69938],[32.10512,1.70062],[32.10679,1.70166],[32.11772,1.71872],[32.13183,1.70773],[32.13365,1.70693],[32.15384,1.71068],[32.17884,1.70153],[32.18174,1.70109],[32.21443,1.70706],[32.21714,1.70628],[32.23381,1.69716],[32.23784,1.6957],[32.25588,1.6938],[32.27328,1.6953],[32.27578,1.69511],[32.27828,1.69404],[32.31986,1.66938],[32.32596,1.66693],[32.32871,1.66696],[32.35465,1.67181],[32.36004,1.6734],[32.38137,1.68725],[32.39532,1.69911],[32.39611,1.70074],[32.39105,1.71656],[32.38592,1.72789],[32.37686,1.75111],[32.37526,1.78615],[32.37347,1.81044],[32.35817,1.83551],[32.35198,1.85001],[32.3817,1.90248],[32.38954,1.91223],[32.40592,1.93082],[32.43336,1.95525],[32.4376,1.95848],[32.45763,1.96497],[32.47347,1.96924],[32.48842,1.97424],[32.5295,1.98461],[32.53461,1.98484],[32.54009,1.98705],[32.5456,1.98773],[32.65651,1.9658],[32.6701,1.96491],[32.67545,1.96587],[32.68191,1.9679],[32.7016,1.97944],[32.71353,1.99274],[32.71504,1.99714]]}},{"type":"Feature","properties":{"name":"Atiak - Moyo","functional_class":"Class B National Road","surface_type":"Bituminous","length_km":64.878,"road_no":"B250"},"geometry":{"type":"LineString","coordinates":[[32.1228,3.26084],[32.10583,3.26936],[32.09429,3.28098],[32.0769,3.30406],[32.06657,3.32283],[32.06371,3.33127],[32.05491,3.34199],[32.04632,3.3468],[32.04279,3.34827],[32.04049,3.34808],[32.03228,3.34533],[32.02334,3.34838],[32.01611,3.35802],[32.00746,3.36054],[32.00566,3.36179],[31.99492,3.3742],[31.99391,3.37606],[31.99341,3.3785],[31.98989,3.38415],[31.98389,3.38836],[31.9791,3.39061],[31.96484,3.39526],[31.96284,3.39544],[31.94853,3.3898],[31.94333,3.38728],[31.93637,3.38283],[31.91855,3.36992],[31.91089,3.3659],[31.89692,3.36134],[31.88838,3.3597],[31.87779,3.35845],[31.86872,3.35849],[31.85691,3.3572],[31.84873,3.35865],[31.83676,3.3615],[31.81514,3.36825],[31.80992,3.36859],[31.80656,3.37116],[31.79652,3.37457],[31.79362,3.37653],[31.79107,3.38066],[31.79086,3.38938],[31.78731,3.39691],[31.78363,3.40913],[31.77731,3.42214],[31.77708,3.42372],[31.78225,3.43567],[31.78637,3.44006],[31.79012,3.44299],[31.79727,3.45272],[31.79889,3.46469],[31.8018,3.47537],[31.80472,3.48292],[31.80565,3.48956],[31.80479,3.50003],[31.80183,3.52062],[31.80406,3.52508],[31.81153,3.53132],[31.81253,3.53694],[31.81121,3.54148],[31.81042,3.54233],[31.81107,3.5437],[31.81113,3.54538]]}},{"type":"Feature","properties":{"name":"Madi Opei - Uganda/Sudan border","functional_class":"Class B National Road","surface_type":"Bituminous","length_km":20.512,"road_no":"B252"},"geometry":{"type":"LineString","coordinates":[[33.0919,3.62228],[33.09984,3.63854],[33.11029,3.66418],[33.11311,3.66935],[33.11423,3.67336],[33.11707,3.67995],[33.12425,3.68816],[33.13665,3.69845],[33.15207,3.71609],[33.17803,3.74957],[33.17937,3.75442],[33.18259,3.75881],[33.19711,3.77105]]}},{"type":"Feature","properties":{"name":"Gulu - Olwiyo","functional_class":"Class B National Road","surface_type":"Bituminous","length_km":61.808,"road_no":"B251"},"geometry":{"type":"LineString","coordinates":[[32.27923,2.7612],[32.2717,2.75646],[32.26959,2.75426],[32.2647,2.74635],[32.25886,2.7392],[32.25563,2.73011],[32.2504,2.72235],[32.24983,2.72066],[32.24956,2.71663],[32.25044,2.70473],[32.24994,2.70008],[32.24885,2.69682],[32.24146,2.68774],[32.22039,2.66595],[32.20177,2.63797],[32.18952,2.62241],[32.18475,2.6129],[32.18168,2.60934],[32.1758,2.6051],[32.17352,2.60467],[32.1715,2.60543],[32.16759,2.60806],[32.16138,2.61385],[32.15561,2.61804],[32.13705,2.62287],[32.12538,2.62263],[32.122,2.62214],[32.11922,2.62094],[32.11264,2.6163],[32.10612,2.61302],[32.0994,2.61202],[32.08204,2.61629],[32.0769,2.61668],[32.06228,2.61619],[32.05935,2.6166],[32.04618,2.62175],[32.04118,2.62264],[32.03408,2.62768],[32.02358,2.63152],[32.01256,2.63284],[32.00827,2.63266],[32.00097,2.63356],[31.99951,2.63273],[31.99151,2.62392],[31.991,2.61717],[31.98951,2.61318],[31.98636,2.60791],[31.98522,2.59876],[31.98439,2.59565],[31.98327,2.59416],[31.97976,2.59258],[31.97078,2.59283],[31.96643,2.59222],[31.96262,2.59383],[31.95633,2.59491],[31.94875,2.60081],[31.94649,2.60081],[31.94052,2.59498],[31.92526,2.58736],[31.91995,2.58284],[31.90092,2.55105],[31.89175,2.54123],[31.88831,2.53824],[31.88577,2.53688]]}},{"type":"Feature","properties":{"name":"Aduku - Lira","functional_class":"Class B National Road","surface_type":"Unsealed","length_km":35.018,"road_no":"B253"},"geometry":{"type":"LineString","coordinates":[[32.71504,1.99714],[32.72054,2.01547],[32.72651,2.01999],[32.73708,2.03355],[32.74346,2.04017],[32.75287,2.05147],[32.75611,2.05949],[32.75821,2.0726],[32.76255,2.0829],[32.76514,2.09767],[32.76729,2.10224],[32.7702,2.10663],[32.78026,2.11844],[32.788,2.12385],[32.84033,2.14591],[32.8451,2.14978],[32.84688,2.15527],[32.85273,2.17924],[32.85815,2.19335],[32.86177,2.2013],[32.87211,2.21323],[32.88547,2.22732],[32.89386,2.23814]]}},{"type":"Feature","properties":{"name":"Moyo - Yumbe","functional_class":"Class B National Road","surface_type":"Unsealed","length_km":65.954,"road_no":"B250"},"geometry":{"type":"LineString","coordinates":[[31.72354,3.65374],[31.7192,3.65477],[31.71204,3.65413],[31.70316,3.64746],[31.70013,3.64457],[31.69629,3.64278],[31.69373,3.64092],[31.69264,3.64085],[31.69047,3.64193],[31.68721,3.64188],[31.68576,3.64007],[31.68475,3.63613],[31.68358,3.63403],[31.67984,3.63164],[31.66965,3.6293],[31.66765,3.62976],[31.66363,3.63189],[31.65855,3.63135],[31.65302,3.62822],[31.64698,3.62264],[31.6393,3.61905],[31.63306,3.6176],[31.63099,3.6161],[31.62783,3.61509],[31.62174,3.61546],[31.61721,3.61498],[31.60691,3.60094],[31.60488,3.59993],[31.60135,3.59947],[31.59669,3.59586],[31.59455,3.59247],[31.59292,3.58856],[31.58998,3.58521],[31.58402,3.58456],[31.58106,3.58197],[31.5763,3.57976],[31.56992,3.58029],[31.56464,3.58281],[31.55931,3.58246],[31.55558,3.58401],[31.55168,3.5864],[31.54641,3.59313],[31.54157,3.60055],[31.54034,3.60383],[31.5386,3.60652],[31.536,3.60904],[31.5329,3.60894],[31.5314,3.6083],[31.53034,3.60669],[31.52763,3.59611],[31.52395,3.58949],[31.52132,3.58351],[31.51788,3.58026],[31.5079,3.57489],[31.50016,3.5746],[31.48824,3.57612],[31.48187,3.57543],[31.47283,3.57573],[31.45805,3.57756],[31.45558,3.57649],[31.45353,3.57412],[31.45141,3.57384],[31.44924,3.57043],[31.44872,3.56874],[31.4452,3.56386],[31.44046,3.56038],[31.43792,3.55926],[31.43294,3.55903],[31.42478,3.55731],[31.4114,3.55639],[31.39436,3.55421],[31.38841,3.55488],[31.38102,3.55696],[31.37263,3.55797],[31.35483,3.55561],[31.339,3.54887],[31.33074,3.54283],[31.32187,3.52997],[31.31841,3.52688],[31.31609,3.51639],[31.30913,3.50967],[31.30709,3.50827],[31.30029,3.50576],[31.29006,3.50365],[31.28215,3.49965],[31.26847,3.49433],[31.2673,3.49302],[31.26564,3.48914],[31.26575,3.48096],[31.26447,3.47799],[31.25541,3.47452],[31.25016,3.47105],[31.24757,3.46995]]}},{"type":"Feature","properties":{"name":"Acholibur - Kitgum","functional_class":"Class B National Road","surface_type":"Bituminous","length_km":19.755,"road_no":"B252"},"geometry":{"type":"LineString","coordinates":[[32.91386,3.14379],[32.91534,3.15578],[32.91996,3.17234],[32.92016,3.17576],[32.91869,3.18152],[32.91896,3.18685],[32.92654,3.2046],[32.92664,3.20864],[32.92585,3.2149],[32.9238,3.22],[32.9182,3.2287],[32.91829,3.23466],[32.91736,3.23843],[32.90831,3.25176],[32.90127,3.26074],[32.90063,3.26261],[32.90022,3.27018],[32.89923,3.27248],[32.89106,3.28167],[32.88723,3.28513],[32.88428,3.29006],[32.88218,3.29858],[32.88125,3.2993],[32.87952,3.29931],[32.88013,3.3034]]}},{"type":"Feature","properties":{"name":"Puranga Bridge - Corner Kilak - Pejule - Acholibur","functional_class":"Class B National Road","surface_type":"Unsealed","length_km":61.6,"road_no":"B252"},"geometry":{"type":"LineString","coordinates":[[32.94252,2.60646],[32.9453,2.60899],[32.94566,2.61045],[32.94488,2.61172],[32.94125,2.61342],[32.93535,2.62218],[32.93535,2.63936],[32.9379,2.65113],[32.94118,2.66245],[32.94148,2.67981],[32.94298,2.69108],[32.9473,2.7092],[32.94886,2.72434],[32.94888,2.73048],[32.94966,2.73565],[32.95041,2.74845],[32.95197,2.75343],[32.95507,2.75863],[32.95839,2.76592],[32.95987,2.77207],[32.95966,2.78309],[32.9622,2.80115],[32.96181,2.81485],[32.96351,2.82923],[32.96331,2.8379],[32.96478,2.84057],[32.96301,2.84359],[32.96123,2.85253],[32.95763,2.86375],[32.95486,2.8784],[32.95543,2.88779],[32.9552,2.89149],[32.95287,2.89924],[32.94253,2.94301],[32.93942,2.95349],[32.93337,2.97867],[32.93205,2.98702],[32.93154,2.99785],[32.92975,3.00189],[32.92882,3.00762],[32.92151,3.02515],[32.92085,3.03477],[32.91746,3.0428],[32.91787,3.05173],[32.92051,3.0629],[32.92162,3.07039],[32.91845,3.08559],[32.91427,3.09912],[32.91408,3.10533],[32.91485,3.1134],[32.9135,3.12166],[32.91361,3.12694],[32.91247,3.13628],[32.91386,3.14379]]}},{"type":"Feature","properties":{"name":"Abim - Kilak","functional_class":"Class B National Road","surface_type":"Unsealed","length_km":83.189,"road_no":"B302"},"geometry":{"type":"LineString","coordinates":[[33.65981,2.71145],[33.65784,2.71021],[33.64928,2.71048],[33.64666,2.71088],[33.64269,2.71275],[33.63901,2.71357],[33.62425,2.71368],[33.6097,2.71257],[33.59217,2.71554],[33.58632,2.71579],[33.57344,2.71884],[33.55244,2.72123],[33.54308,2.72351],[33.50272,2.72885],[33.49041,2.73593],[33.4849,2.7423],[33.46335,2.7384],[33.4533,2.74117],[33.43956,2.7461],[33.43359,2.74729],[33.425,2.75027],[33.41782,2.75208],[33.3986,2.75322],[33.38571,2.7525],[33.37578,2.75392],[33.35978,2.75394],[33.34522,2.75515],[33.33967,2.75658],[33.32946,2.76061],[33.31208,2.76404],[33.30702,2.76622],[33.26356,2.76585],[33.25332,2.76412],[33.25107,2.76427],[33.23674,2.7694],[33.228,2.77144],[33.21828,2.77481],[33.19929,2.77811],[33.18045,2.77975],[33.17211,2.78139],[33.15294,2.78918],[33.14041,2.7914],[33.12656,2.79981],[33.1202,2.80718],[33.11889,2.80804],[33.11291,2.80785],[33.10333,2.80838],[33.09778,2.80746],[33.08466,2.80653],[33.06631,2.8063],[33.06213,2.80573],[33.05924,2.80687],[33.05325,2.80696],[33.04552,2.80859],[33.03849,2.80664],[33.0338,2.80652],[33.03085,2.80697],[33.02767,2.80475],[33.02347,2.80054],[33.00546,2.78782],[33.0033,2.78447],[32.99842,2.77302],[32.99796,2.76872],[32.99593,2.7662],[32.9934,2.76449],[32.9872,2.7623],[32.98136,2.76096],[32.97871,2.76091],[32.96609,2.76446],[32.9588,2.7671]]}},{"type":"Feature","properties":{"name":"Lira - Puranga Bridge","functional_class":"Class B National Road","surface_type":"Unsealed","length_km":42.9,"road_no":"B252"},"geometry":{"type":"LineString","coordinates":[[32.90064,2.2487],[32.90253,2.25095],[32.91867,2.2758],[32.92128,2.2934],[32.92539,2.30829],[32.93201,2.32672],[32.93288,2.33256],[32.93307,2.34377],[32.93424,2.36201],[32.93543,2.37074],[32.93318,2.37779],[32.93262,2.3835],[32.93436,2.39512],[32.93773,2.40331],[32.93581,2.41371],[32.93093,2.42809],[32.93496,2.43709],[32.94009,2.44495],[32.94122,2.44995],[32.94052,2.454],[32.93648,2.46551],[32.93564,2.48257],[32.93429,2.4909],[32.93282,2.49597],[32.93123,2.50799],[32.9297,2.51345],[32.92991,2.52095],[32.93653,2.53722],[32.93625,2.53942],[32.93253,2.55151],[32.93182,2.55891],[32.93281,2.56493],[32.93264,2.56929],[32.92785,2.59339],[32.92877,2.59899],[32.9299,2.6018],[32.93398,2.60722],[32.9358,2.60736],[32.93776,2.60477],[32.93885,2.60427],[32.94035,2.60458],[32.94252,2.60646]]}},{"type":"Feature","properties":{"name":"Bwizibwera - Ibanda","functional_class":"Class B National Road","surface_type":"Bituminous","length_km":45.806,"road_no":"B150"},"geometry":{"type":"LineString","coordinates":[[30.57413,-0.43987],[30.57163,-0.43315],[30.5706,-0.42295],[30.5685,-0.41308],[30.5683,-0.39881],[30.56571,-0.38989],[30.56436,-0.37386],[30.56562,-0.36159],[30.56981,-0.35124],[30.57241,-0.34228],[30.57586,-0.33556],[30.57608,-0.33222],[30.58166,-0.32454],[30.58669,-0.31331],[30.59335,-0.30174],[30.59424,-0.29835],[30.59328,-0.29733],[30.58973,-0.29622],[30.58495,-0.29698],[30.57963,-0.29699],[30.57508,-0.29853],[30.57285,-0.29858],[30.57106,-0.29791],[30.5686,-0.29605],[30.56448,-0.29515],[30.56169,-0.29319],[30.56124,-0.29199],[30.56172,-0.28928],[30.5616,-0.28394],[30.56083,-0.28036],[30.56136,-0.27925],[30.56395,-0.2773],[30.56372,-0.27356],[30.5627,-0.27202],[30.56185,-0.26804],[30.56027,-0.26565],[30.55915,-0.26184],[30.55397,-0.25524],[30.55265,-0.2517],[30.54816,-0.24608],[30.5466,-0.23469],[30.54424,-0.23304],[30.54372,-0.23204],[30.54469,-0.22918],[30.54837,-0.22627],[30.5487,-0.22482],[30.5482,-0.22339],[30.54644,-0.22216],[30.5426,-0.22091],[30.54019,-0.22066],[30.53827,-0.21908],[30.53694,-0.21572],[30.53387,-0.21257],[30.53247,-0.20871],[30.5292,-0.20566],[30.52806,-0.20397],[30.52541,-0.19506],[30.52473,-0.19412],[30.52346,-0.19379],[30.52018,-0.19469],[30.51693,-0.1944],[30.50963,-0.19702],[30.50813,-0.19697],[30.50212,-0.19092],[30.49972,-0.18713],[30.49458,-0.18544],[30.49241,-0.1834],[30.49036,-0.17354],[30.48942,-0.17256],[30.48669,-0.17158],[30.48613,-0.17092],[30.48583,-0.16328],[30.48408,-0.16179],[30.48192,-0.15768],[30.47943,-0.15534],[30.47915,-0.15371],[30.47803,-0.15244],[30.48062,-0.15009],[30.48679,-0.14231],[30.49191,-0.13447],[30.5007,-0.13074]]}},{"type":"Feature","properties":{"name":"Ishaka - Buhinda - Rugazi","functional_class":"Class B National Road","surface_type":"Bituminous","length_km":39.3,"road_no":"B152"},"geometry":{"type":"LineString","coordinates":[[30.1385,-0.54519],[30.13494,-0.54446],[30.13078,-0.54107],[30.12467,-0.53806],[30.12355,-0.53687],[30.12309,-0.53473],[30.12439,-0.52929],[30.12251,-0.52331],[30.11975,-0.52008],[30.11923,-0.51596],[30.11585,-0.51421],[30.11474,-0.51306],[30.11406,-0.50927],[30.11236,-0.50637],[30.1116,-0.50291],[30.10932,-0.50101],[30.1088,-0.49981],[30.11008,-0.4951],[30.1103,-0.49149],[30.11187,-0.48823],[30.11054,-0.48327],[30.10851,-0.48035],[30.10679,-0.47308],[30.10891,-0.46754],[30.11076,-0.45937],[30.11187,-0.45758],[30.11501,-0.45482],[30.11572,-0.45176],[30.11506,-0.44971],[30.11242,-0.4481],[30.11154,-0.44681],[30.11097,-0.44249],[30.11148,-0.44146],[30.11304,-0.44025],[30.11331,-0.43915],[30.11274,-0.43818],[30.11074,-0.43715],[30.11013,-0.43565],[30.11052,-0.43085],[30.11211,-0.42707],[30.11177,-0.42418],[30.11228,-0.42012],[30.11142,-0.41648],[30.11381,-0.4127],[30.11539,-0.40767],[30.11498,-0.4028],[30.11527,-0.39817],[30.11432,-0.39472],[30.11202,-0.39052],[30.11184,-0.38449],[30.11577,-0.37405],[30.11449,-0.37202],[30.11053,-0.37097],[30.10876,-0.36834],[30.10692,-0.36703],[30.10572,-0.36505],[30.10131,-0.36281],[30.10016,-0.36172],[30.09848,-0.35953],[30.09748,-0.35568],[30.09406,-0.35302],[30.09235,-0.34849],[30.09227,-0.34377],[30.09314,-0.34126],[30.0953,-0.33791],[30.09591,-0.33432],[30.10054,-0.33167],[30.10412,-0.33071],[30.10676,-0.32527],[30.1066,-0.32351],[30.10419,-0.31935],[30.10343,-0.31587],[30.10415,-0.31095],[30.1041,-0.30607],[30.1059,-0.30026],[30.104,-0.2942],[30.10423,-0.28857],[30.10531,-0.28541],[30.10549,-0.28137],[30.10725,-0.27856],[30.10749,-0.27707],[30.10628,-0.27166],[30.10691,-0.26457],[30.10633,-0.26312],[30.10411,-0.26158],[30.10256,-0.26122],[30.09861,-0.26315],[30.09189,-0.26294],[30.09101,-0.26227],[30.09046,-0.26093],[30.09153,-0.2577],[30.09107,-0.25507]]}},{"type":"Feature","properties":{"name":"Mbarara - Ishanyu","functional_class":"Class B National Road","surface_type":"Bituminous","length_km":4.934,"road_no":"B151"},"geometry":{"type":"LineString","coordinates":[[30.64849,-0.61734],[30.64773,-0.61606],[30.64449,-0.61526],[30.64013,-0.61513],[30.63734,-0.61214],[30.62808,-0.60846],[30.62094,-0.60398],[30.6099,-0.59819]]}},{"type":"Feature","properties":{"name":"Muko - Nyakabande - Kisoro","functional_class":"Class B National Road","surface_type":"Bituminous","length_km":33.845,"road_no":"B153"},"geometry":{"type":"MultiLineString","coordinates":[[[29.80257,-1.2052],[29.80229,-1.20508]],[[29.80229,-1.20508],[29.80157,-1.20545],[29.8021,-1.20658],[29.80153,-1.20841],[29.80373,-1.20827],[29.80459,-1.20882],[29.80628,-1.20681],[29.80798,-1.20783],[29.8061,-1.21023],[29.80572,-1.2119],[29.80443,-1.21367],[29.8061,-1.21452],[29.80605,-1.21576],[29.80484,-1.2163],[29.80561,-1.21741],[29.8044,-1.21929],[29.80549,-1.22032],[29.80454,-1.22092],[29.80194,-1.22091],[29.8005,-1.22233],[29.80152,-1.22303],[29.80119,-1.22389],[29.80398,-1.22544],[29.80611,-1.22966],[29.80782,-1.23027],[29.80894,-1.23155],[29.80999,-1.2331],[29.80998,-1.23451],[29.81095,-1.23687],[29.81189,-1.23812],[29.81154,-1.23897],[29.81202,-1.24051],[29.81177,-1.24198],[29.81056,-1.24285],[29.80978,-1.24479],[29.80808,-1.24546],[29.80869,-1.24944],[29.80804,-1.25061],[29.80817,-1.25168],[29.80391,-1.2521],[29.80275,-1.25175],[29.80067,-1.25233],[29.7997,-1.25329],[29.80009,-1.25425],[29.80168,-1.255],[29.80556,-1.25483],[29.80624,-1.25692],[29.80575,-1.25567],[29.80481,-1.25512],[29.80305,-1.25549],[29.8003,-1.25749],[29.79883,-1.25756],[29.79719,-1.25555],[29.79551,-1.25545],[29.79463,-1.25428],[29.79373,-1.25407],[29.79335,-1.25258],[29.79204,-1.2515],[29.79122,-1.25132],[29.78992,-1.2529],[29.7898,-1.251],[29.78859,-1.25175],[29.78781,-1.2502],[29.78589,-1.24865],[29.78392,-1.24903],[29.78359,-1.24747],[29.78169,-1.24739],[29.77851,-1.24514],[29.77815,-1.24575],[29.77841,-1.24733],[29.77658,-1.24851],[29.77578,-1.24723],[29.77615,-1.24863],[29.77751,-1.24873],[29.7794,-1.24757],[29.78166,-1.2491],[29.78193,-1.25078],[29.78346,-1.25139],[29.78369,-1.252],[29.78169,-1.25392],[29.78249,-1.25504],[29.78073,-1.25513],[29.78002,-1.25564],[29.7767,-1.25559],[29.774,-1.25921],[29.77135,-1.25929],[29.77273,-1.26119],[29.77158,-1.26189],[29.77081,-1.26156],[29.77069,-1.26199],[29.77218,-1.26365],[29.77363,-1.26794],[29.77306,-1.2752],[29.77039,-1.27411],[29.76759,-1.27213],[29.76535,-1.27164],[29.76325,-1.27254],[29.76383,-1.27609],[29.76466,-1.27684],[29.76444,-1.27866],[29.76539,-1.27987],[29.76596,-1.28266],[29.76436,-1.27971],[29.76377,-1.28005],[29.76392,-1.28146],[29.76334,-1.28215],[29.76165,-1.28221],[29.76121,-1.27905],[29.7599,-1.27527],[29.75847,-1.2732],[29.75604,-1.27167],[29.75153,-1.27585],[29.74763,-1.27641],[29.74349,-1.27807],[29.73476,-1.28024],[29.73181,-1.28168],[29.72718,-1.28152],[29.71308,-1.28245],[29.71052,-1.2839],[29.7083,-1.28306],[29.69691,-1.28245],[29.69027,-1.28274],[29.68823,-1.28339]],[[29.68823,-1.28339],[29.68805,-1.28344]]]}},{"type":"Feature","properties":{"name":"Ibanda - Muziza - Kamwenge","functional_class":"Class B National Road","surface_type":"Bituminous","length_km":44.461,"road_no":"B150"},"geometry":{"type":"LineString","coordinates":[[30.5007,-0.13074],[30.50237,-0.12939],[30.5015,-0.12139],[30.50334,-0.11502],[30.49884,-0.09388],[30.49953,-0.09175],[30.49924,-0.08974],[30.50047,-0.08697],[30.50092,-0.08344],[30.50046,-0.0824],[30.4963,-0.07832],[30.49483,-0.07555],[30.49166,-0.0678],[30.49189,-0.06197],[30.48913,-0.05977],[30.48759,-0.05729],[30.4875,-0.05618],[30.48935,-0.05355],[30.49105,-0.04702],[30.49455,-0.04686],[30.49764,-0.04303],[30.50167,-0.04083],[30.50292,-0.0385],[30.50495,-0.03646],[30.50967,-0.03583],[30.51333,-0.03342],[30.52116,-0.02034],[30.52645,-0.01688],[30.53106,-0.01214],[30.53237,-0.00864],[30.5322,-0.00406],[30.53131,-0.00153],[30.52841,0.00035],[30.52708,0.00184],[30.52598,0.00568],[30.52156,0.01149],[30.51863,0.01682],[30.51766,0.02015],[30.51479,0.02347],[30.51099,0.02505],[30.51029,0.02577],[30.51023,0.02913],[30.50861,0.0329],[30.50713,0.03884],[30.50619,0.03952],[30.50159,0.04041],[30.50081,0.04112],[30.4998,0.04387],[30.50032,0.04876],[30.49864,0.05128],[30.49734,0.05242],[30.493,0.05323],[30.48944,0.05586],[30.48461,0.05568],[30.48254,0.0602],[30.47767,0.06341],[30.47544,0.06913],[30.47258,0.08935],[30.46999,0.09126],[30.46318,0.1001],[30.46132,0.10086],[30.4584,0.10039],[30.45711,0.10146],[30.45711,0.10249],[30.45854,0.10528],[30.4588,0.10834],[30.45731,0.11104],[30.45543,0.11962],[30.45177,0.12454],[30.4518,0.13182],[30.44351,0.13989],[30.43798,0.1419],[30.43686,0.14297],[30.43705,0.14717],[30.43593,0.14938],[30.43597,0.15064],[30.43898,0.15388],[30.44327,0.16126],[30.44594,0.1704],[30.44838,0.17379],[30.45046,0.17798],[30.45342,0.18177],[30.45348,0.18321],[30.45272,0.18473],[30.45277,0.18539],[30.45342,0.18574]]}},{"type":"Feature","properties":{"name":"Ntungamo - Kagamba","functional_class":"Class B National Road","surface_type":"Bituminous","length_km":15.229,"road_no":"B152"},"geometry":{"type":"LineString","coordinates":[[30.26541,-0.88133],[30.26191,-0.88092],[30.25811,-0.87958],[30.2543,-0.88044],[30.25163,-0.88037],[30.24846,-0.87851],[30.24384,-0.87809],[30.2393,-0.87951],[30.23639,-0.87957],[30.23366,-0.88078],[30.22895,-0.87943],[30.22569,-0.87605],[30.22085,-0.86447],[30.21801,-0.86297],[30.21529,-0.86075],[30.21127,-0.85497],[30.20728,-0.85184],[30.20212,-0.84592],[30.19856,-0.84413],[30.19458,-0.84375],[30.19102,-0.84087],[30.18078,-0.83711],[30.17732,-0.83362],[30.17262,-0.83006],[30.17005,-0.83042],[30.16903,-0.82993],[30.16565,-0.82383],[30.1647,-0.82041],[30.16298,-0.81875],[30.15992,-0.81796]]}},{"type":"Feature","properties":{"name":"Rugazi - Katunguru  - Kikorongo","functional_class":"Class B National Road","surface_type":"Bituminous","length_km":33.1,"road_no":"B152"},"geometry":{"type":"LineString","coordinates":[[30.09107,-0.25507],[30.08996,-0.24866],[30.09188,-0.24482],[30.09431,-0.23792],[30.09398,-0.22571],[30.09654,-0.22348],[30.09779,-0.22112],[30.09811,-0.21834],[30.10128,-0.21712],[30.10263,-0.21418],[30.10174,-0.2134],[30.0997,-0.21299],[30.09595,-0.21397],[30.0934,-0.21624],[30.09262,-0.21591],[30.09349,-0.21093],[30.08603,-0.19691],[30.08233,-0.18811],[30.07872,-0.17206],[30.07432,-0.16017],[30.07114,-0.15402],[30.05705,-0.1378],[30.05625,-0.13466],[30.05489,-0.13212],[30.05102,-0.12703],[30.04768,-0.12416],[30.04786,-0.12006],[30.00645,-0.03037],[30.00315,-0.01548],[30.00333,-0.00851],[30.00156,-0.00368],[29.99901,0.00028]]}},{"type":"Feature","properties":{"name":"Ishanyu - Kabwohe","functional_class":"Class B National Road","surface_type":"Bituminous","length_km":26.171,"road_no":"B151"},"geometry":{"type":"LineString","coordinates":[[30.6099,-0.59819],[30.59686,-0.59262],[30.57191,-0.58697],[30.56252,-0.58817],[30.54847,-0.58916],[30.51909,-0.58456],[30.5071,-0.58207],[30.48301,-0.58293],[30.47641,-0.58539],[30.47391,-0.58576],[30.44962,-0.58135],[30.42274,-0.57929],[30.40588,-0.57887],[30.39908,-0.57797],[30.39264,-0.57951],[30.3783,-0.5801]]}},{"type":"Feature","properties":{"name":"Ishanyu - Bwizibwera","functional_class":"Class B National Road","surface_type":"Bituminous","length_km":18.949,"road_no":"B150"},"geometry":{"type":"LineString","coordinates":[[30.60991,-0.59819],[30.61181,-0.58697],[30.60694,-0.56671],[30.60762,-0.56309],[30.60602,-0.53501],[30.60773,-0.52102],[30.60633,-0.51362],[30.60537,-0.51191],[30.60162,-0.50934],[30.59785,-0.50285],[30.59212,-0.49597],[30.58946,-0.4743],[30.5864,-0.46867],[30.58531,-0.45944],[30.58389,-0.45736],[30.57622,-0.45238],[30.57469,-0.45065],[30.574,-0.44825],[30.57413,-0.43987]]}},{"type":"Feature","properties":{"name":"Kisoro - Bunagana","functional_class":"Class B National Road","surface_type":"Bituminous","length_km":12.026,"road_no":"B153"},"geometry":{"type":"LineString","coordinates":[[29.68805,-1.28344],[29.6847,-1.28439],[29.68094,-1.28242],[29.68039,-1.28164],[29.6803,-1.27996],[29.67823,-1.27941],[29.67583,-1.27785],[29.67153,-1.27369],[29.66995,-1.27283],[29.66874,-1.27106],[29.66488,-1.26864],[29.65851,-1.26814],[29.65182,-1.26829],[29.64288,-1.27667],[29.64049,-1.281],[29.63729,-1.28117],[29.63602,-1.28172],[29.6351,-1.28253],[29.634,-1.28491],[29.62439,-1.29127],[29.6157,-1.29262],[29.60932,-1.29449],[29.59978,-1.29418],[29.59818,-1.29568]]}},{"type":"Feature","properties":{"name":"Kagamba - Ishaka","functional_class":"Class B National Road","surface_type":"Bituminous","length_km":35.906,"road_no":"B152"},"geometry":{"type":"LineString","coordinates":[[30.15992,-0.81796],[30.16161,-0.81577],[30.16168,-0.8141],[30.16292,-0.81163],[30.16355,-0.80835],[30.16316,-0.79653],[30.15969,-0.79025],[30.15909,-0.78791],[30.15945,-0.78484],[30.16047,-0.78193],[30.16003,-0.77668],[30.161,-0.77293],[30.16109,-0.76926],[30.16452,-0.75465],[30.16691,-0.75284],[30.16769,-0.75054],[30.16772,-0.74755],[30.16937,-0.74615],[30.17109,-0.74585],[30.17149,-0.74136],[30.17114,-0.73875],[30.17369,-0.73414],[30.16938,-0.72897],[30.16787,-0.72648],[30.16716,-0.72404],[30.1661,-0.7233],[30.16401,-0.7229],[30.16141,-0.72108],[30.15976,-0.71709],[30.16053,-0.71542],[30.15989,-0.711],[30.1611,-0.70945],[30.162,-0.70661],[30.1645,-0.70476],[30.16683,-0.70478],[30.16657,-0.70268],[30.167,-0.69833],[30.16938,-0.69474],[30.1696,-0.69287],[30.16656,-0.68961],[30.16396,-0.68415],[30.16227,-0.68252],[30.16303,-0.68092],[30.16131,-0.67824],[30.15958,-0.67815],[30.15778,-0.67982],[30.15665,-0.67912],[30.15547,-0.67736],[30.15478,-0.67477],[30.15484,-0.67292],[30.15336,-0.669],[30.1522,-0.66727],[30.15172,-0.66441],[30.15081,-0.66284],[30.1507,-0.66112],[30.15216,-0.65215],[30.1534,-0.65057],[30.15237,-0.65015],[30.15181,-0.64886],[30.15224,-0.646],[30.15116,-0.64262],[30.15145,-0.63589],[30.15302,-0.63362],[30.14971,-0.63144],[30.14894,-0.62999],[30.14897,-0.62236],[30.1507,-0.61354],[30.15058,-0.611],[30.15106,-0.60895],[30.15072,-0.6058],[30.14939,-0.60371],[30.14453,-0.6008],[30.14297,-0.59783],[30.13882,-0.59726],[30.13632,-0.59273],[30.13513,-0.59164],[30.13349,-0.58744],[30.13305,-0.58488],[30.13334,-0.58342],[30.13445,-0.58126],[30.13842,-0.57767],[30.13932,-0.57486],[30.13927,-0.57332],[30.1375,-0.56828],[30.13492,-0.56411],[30.13412,-0.56134],[30.13504,-0.55571],[30.13811,-0.55128],[30.13925,-0.54572],[30.139,-0.54505],[30.1385,-0.54519]]}},{"type":"Feature","properties":{"name":"Kabale - Ikumba - Muko","functional_class":"Class B National Road","surface_type":"Bituminous","length_km":41.999,"road_no":"B153"},"geometry":{"type":"LineString","coordinates":[[29.97402,-1.24476],[29.97057,-1.2432],[29.96397,-1.23358],[29.95978,-1.22978],[29.95618,-1.22737],[29.95542,-1.22478],[29.95424,-1.22329],[29.95204,-1.2234],[29.95112,-1.22098],[29.94773,-1.21798],[29.94468,-1.21655],[29.94186,-1.21664],[29.93842,-1.21338],[29.93785,-1.2122],[29.93562,-1.21145],[29.93565,-1.20905],[29.93378,-1.20198],[29.93227,-1.2001],[29.92951,-1.19904],[29.92748,-1.19727],[29.92894,-1.19574],[29.92848,-1.193],[29.92732,-1.1893],[29.92559,-1.18729],[29.92639,-1.18561],[29.9269,-1.18202],[29.92786,-1.18089],[29.92898,-1.17771],[29.92797,-1.17146],[29.9288,-1.16867],[29.92691,-1.16367],[29.92648,-1.16005],[29.92471,-1.15587],[29.92188,-1.15149],[29.91897,-1.14982],[29.91862,-1.1478],[29.90823,-1.13529],[29.90827,-1.13252],[29.90598,-1.12837],[29.90325,-1.12755],[29.90027,-1.1279],[29.89929,-1.12744],[29.895,-1.12005],[29.89536,-1.11716],[29.8948,-1.11748],[29.89464,-1.11926],[29.89357,-1.11985],[29.89448,-1.1214],[29.89277,-1.12157],[29.8913,-1.12315],[29.88937,-1.1231],[29.88923,-1.12437],[29.88766,-1.12561],[29.88409,-1.12529],[29.87787,-1.1229],[29.87515,-1.12315],[29.87113,-1.12431],[29.87,-1.12786],[29.87048,-1.13061],[29.86952,-1.13144],[29.86943,-1.13302],[29.86863,-1.1347],[29.86936,-1.13777],[29.86818,-1.14236],[29.8642,-1.14122],[29.8627,-1.14183],[29.86251,-1.14287],[29.86184,-1.14341],[29.85876,-1.14244],[29.85877,-1.14404],[29.85761,-1.14455],[29.85679,-1.14588],[29.85391,-1.14731],[29.85301,-1.14905],[29.85178,-1.14955],[29.85186,-1.15113],[29.85011,-1.15307],[29.84933,-1.15491],[29.85036,-1.15794],[29.8468,-1.1619],[29.84673,-1.16341],[29.84589,-1.16528],[29.84469,-1.16591],[29.84264,-1.16911],[29.84353,-1.16991],[29.84345,-1.1704],[29.84132,-1.17141],[29.84162,-1.17209],[29.84273,-1.17265],[29.84164,-1.17549],[29.84217,-1.17761],[29.84185,-1.18066],[29.84428,-1.18578],[29.84396,-1.18724],[29.84513,-1.18753],[29.84626,-1.18866],[29.84562,-1.19455],[29.84451,-1.19606],[29.84073,-1.19418],[29.83819,-1.19493],[29.83666,-1.19432],[29.83524,-1.19628],[29.83261,-1.19604],[29.83305,-1.19794],[29.83535,-1.19906],[29.83735,-1.19917],[29.83791,-1.19993],[29.83578,-1.20262],[29.83355,-1.20437],[29.83315,-1.20735],[29.83216,-1.20846],[29.83247,-1.20972],[29.83151,-1.21253],[29.82371,-1.20968],[29.82126,-1.2076],[29.81698,-1.20553],[29.81467,-1.20132],[29.81385,-1.20093],[29.81311,-1.20103],[29.81265,-1.20248],[29.81006,-1.20517],[29.80605,-1.20479],[29.80435,-1.20696],[29.80298,-1.20724],[29.80237,-1.20594],[29.80257,-1.2052]]}},{"type":"Feature","properties":{"name":"Kabwohe - Ishaka","functional_class":"Class B National Road","surface_type":"Bituminous","length_km":28.078,"road_no":"B151"},"geometry":{"type":"LineString","coordinates":[[30.3783,-0.5801],[30.35787,-0.57493],[30.35273,-0.57141],[30.3482,-0.57002],[30.34529,-0.56588],[30.34369,-0.56457],[30.32793,-0.55784],[30.32419,-0.55769],[30.31625,-0.56025],[30.31222,-0.56076],[30.29692,-0.55851],[30.29298,-0.55709],[30.28757,-0.55805],[30.28148,-0.55722],[30.27747,-0.55627],[30.27005,-0.55129],[30.26092,-0.54904],[30.2509,-0.5488],[30.24458,-0.54551],[30.22579,-0.54639],[30.2176,-0.54399],[30.2098,-0.54312],[30.20519,-0.5432],[30.20003,-0.54185],[30.18729,-0.54047],[30.17084,-0.54169],[30.16363,-0.53987],[30.15713,-0.54151],[30.1491,-0.54034],[30.1435,-0.54108],[30.14103,-0.54235],[30.139,-0.54505]]}},{"type":"Feature","properties":{"name":"Kabwoya - Kiziranfumbi - Buhimba","functional_class":"Class B National Road","surface_type":"Bituminous","length_km":31.503,"road_no":"B202"},"geometry":{"type":"LineString","coordinates":[[31.08359,1.24624],[31.08504,1.24963],[31.08594,1.25403],[31.0895,1.25931],[31.0951,1.26485],[31.10225,1.27056],[31.1036,1.2727],[31.1073,1.27625],[31.11157,1.27915],[31.11559,1.28294],[31.12376,1.2892],[31.13145,1.29414],[31.13274,1.29397],[31.13577,1.29193],[31.13878,1.2921],[31.14223,1.29406],[31.14421,1.29749],[31.14515,1.29828],[31.15043,1.29986],[31.15167,1.30093],[31.15474,1.30228],[31.15675,1.30235],[31.15877,1.30359],[31.16272,1.30475],[31.16471,1.30663],[31.16851,1.31294],[31.18594,1.31983],[31.22121,1.34004],[31.22915,1.34668],[31.2474,1.36363],[31.2502,1.3634],[31.25735,1.3643],[31.26285,1.36589],[31.26806,1.36531],[31.2726,1.36586],[31.27373,1.36515],[31.27477,1.36326],[31.28001,1.35871],[31.28234,1.35752],[31.28569,1.35703],[31.28911,1.35577],[31.29553,1.35189],[31.29998,1.34814],[31.30358,1.34594],[31.30489,1.34563],[31.3091,1.34595],[31.31239,1.34681]]}},{"type":"Feature","properties":{"name":"Kafu - Masindi","functional_class":"Class B National Road","surface_type":"Bituminous","length_km":43.263,"road_no":"B200"},"geometry":{"type":"LineString","coordinates":[[32.04146,1.54513],[32.0394,1.54544],[32.02071,1.55589],[32.00395,1.56227],[31.98111,1.56703],[31.96353,1.56915],[31.95401,1.56904],[31.94011,1.57575],[31.93427,1.5775],[31.91925,1.58395],[31.91165,1.58533],[31.89929,1.58938],[31.89613,1.59147],[31.89027,1.59673],[31.88476,1.60087],[31.86812,1.61002],[31.86171,1.61448],[31.85158,1.6158],[31.84073,1.62206],[31.83003,1.62965],[31.82237,1.63138],[31.80984,1.63658],[31.80419,1.64127],[31.80249,1.64511],[31.80071,1.64685],[31.79886,1.64769],[31.7942,1.64835],[31.76048,1.66826],[31.75358,1.67143],[31.748,1.67024],[31.73112,1.67564],[31.72959,1.6767],[31.72785,1.68023],[31.71798,1.68551],[31.71292,1.69259],[31.71114,1.6942],[31.71016,1.69411],[31.70879,1.69267],[31.70284,1.68066]]}},{"type":"Feature","properties":{"name":"Kigumba - Masindi","functional_class":"Class B National Road","surface_type":"Bituminous","length_km":39.058,"road_no":"B201"},"geometry":{"type":"LineString","coordinates":[[32.01147,1.80944],[32.00954,1.8103],[32.00446,1.80769],[32.00221,1.80704],[31.98956,1.80495],[31.98223,1.80128],[31.9764,1.79762],[31.96925,1.79481],[31.96417,1.79374],[31.96036,1.79148],[31.95505,1.78933],[31.94356,1.79044],[31.9311,1.7901],[31.92111,1.79101],[31.91843,1.7917],[31.91161,1.79507],[31.90198,1.79767],[31.89364,1.79488],[31.88595,1.79349],[31.87578,1.78712],[31.86983,1.78504],[31.85588,1.78154],[31.84915,1.7783],[31.84118,1.77362],[31.84001,1.77361],[31.83241,1.77624],[31.82862,1.77645],[31.82342,1.77521],[31.81865,1.77099],[31.81303,1.77089],[31.81015,1.77017],[31.80168,1.76592],[31.79356,1.76496],[31.78922,1.76356],[31.78056,1.76661],[31.77747,1.76636],[31.77406,1.76512],[31.7717,1.7636],[31.76827,1.75886],[31.76465,1.75502],[31.75315,1.74538],[31.74926,1.7391],[31.74612,1.7366],[31.74024,1.7303],[31.73901,1.72825],[31.73775,1.72397],[31.73135,1.71377],[31.72871,1.70616],[31.72546,1.69925],[31.7183,1.69387],[31.71476,1.69008]]}},{"type":"Feature","properties":{"name":"Buhimba - Hoima","functional_class":"Class B National Road","surface_type":"Bituminous","length_km":10.573,"road_no":"B202"},"geometry":{"type":"LineString","coordinates":[[31.31239,1.34681],[31.31483,1.34624],[31.31605,1.34693],[31.32415,1.36327],[31.32464,1.36506],[31.32461,1.36965],[31.32666,1.37206],[31.32726,1.37748],[31.32839,1.38123],[31.32933,1.38334],[31.33128,1.38547],[31.33191,1.38728],[31.33232,1.38964],[31.33209,1.39518],[31.33669,1.4144],[31.34094,1.42348],[31.34329,1.42673],[31.34712,1.42915],[31.35224,1.43115],[31.35386,1.43252]]}},{"type":"Feature","properties":{"name":"Kagadi - Mabale - Kabwoya","functional_class":"Class B National Road","surface_type":"Bituminous","length_km":49.704,"road_no":"B202"},"geometry":{"type":"LineString","coordinates":[[31.08359,1.24624],[31.08003,1.24189],[31.07072,1.23313],[31.06266,1.22689],[31.06118,1.2199],[31.0611,1.21452],[31.05983,1.21115],[31.05465,1.20806],[31.05433,1.20397],[31.05029,1.2004],[31.04757,1.19522],[31.04663,1.19228],[31.03721,1.18857],[31.03406,1.18793],[31.03151,1.18588],[31.0297,1.18164],[31.02787,1.16948],[31.02662,1.1679],[31.02516,1.16372],[31.02298,1.16287],[31.01987,1.16311],[31.0185,1.16222],[31.01769,1.16085],[31.01611,1.15502],[31.01075,1.14826],[31.00399,1.14256],[31.00187,1.13827],[30.99875,1.13472],[30.99777,1.13273],[30.99376,1.12873],[30.99319,1.1271],[30.9892,1.121],[30.98914,1.11785],[30.98667,1.11132],[30.98421,1.10759],[30.97905,1.10143],[30.9778,1.10015],[30.96748,1.09587],[30.96553,1.09428],[30.95876,1.08674],[30.9566,1.08256],[30.94835,1.08143],[30.94324,1.07968],[30.94152,1.07842],[30.93652,1.07147],[30.93672,1.06433],[30.93637,1.06337],[30.93158,1.06038],[30.92943,1.06114],[30.92815,1.06089],[30.91762,1.04952],[30.91465,1.04494],[30.90834,1.03854],[30.90554,1.03397],[30.90447,1.02893],[30.90118,1.02408],[30.89918,1.02205],[30.89839,1.0191],[30.89362,1.01279],[30.88668,1.00928],[30.88571,1.00627],[30.88412,1.00524],[30.88053,1.00063],[30.87105,0.99777],[30.86893,0.99476],[30.86037,0.98728],[30.85718,0.98767],[30.856,0.98734],[30.84701,0.97672],[30.84528,0.97179],[30.84272,0.97012],[30.84199,0.96759],[30.83019,0.95648],[30.82487,0.95052],[30.82087,0.94793],[30.81709,0.94719],[30.81643,0.94618],[30.81621,0.94358],[30.81336,0.94167],[30.81041,0.94172],[30.80957,0.94126],[30.80897,0.94029],[30.80901,0.93812]]}},{"type":"Feature","properties":{"name":"Kamwenge - Fortportal","functional_class":"Class B National Road","surface_type":"Bituminous","length_km":64.78,"road_no":"B150"},"geometry":{"type":"LineString","coordinates":[[30.4528,0.1854],[30.45571,0.1869],[30.4573,0.19256],[30.45609,0.19595],[30.45653,0.19768],[30.45592,0.19936],[30.45622,0.20548],[30.45452,0.20876],[30.45383,0.21628],[30.45186,0.22614],[30.44701,0.23524],[30.44505,0.24223],[30.4445,0.2472],[30.44538,0.24978],[30.44477,0.2525],[30.44514,0.25603],[30.44728,0.26107],[30.44723,0.26806],[30.44843,0.27535],[30.45465,0.28716],[30.45517,0.28958],[30.4544,0.29453],[30.45473,0.29879],[30.4534,0.30081],[30.45244,0.30676],[30.45076,0.31174],[30.45094,0.3156],[30.44949,0.3178],[30.44861,0.32203],[30.44653,0.3255],[30.43957,0.32684],[30.43737,0.32819],[30.43546,0.33032],[30.43482,0.33193],[30.43105,0.33438],[30.4309,0.33805],[30.42686,0.34059],[30.42673,0.34257],[30.42544,0.34495],[30.42475,0.34841],[30.42582,0.35452],[30.42592,0.35853],[30.42347,0.36633],[30.42135,0.3711],[30.41949,0.37285],[30.41922,0.37516],[30.41776,0.37723],[30.41748,0.38152],[30.41615,0.38515],[30.41525,0.3902],[30.41192,0.39638],[30.41111,0.40215],[30.41014,0.40516],[30.40518,0.41011],[30.40071,0.4179],[30.40103,0.41994],[30.40498,0.42359],[30.40515,0.42502],[30.40459,0.42685],[30.39861,0.43034],[30.39578,0.43048],[30.39423,0.43106],[30.39404,0.43495],[30.39194,0.43788],[30.38914,0.44732],[30.38552,0.44887],[30.38369,0.45487],[30.3803,0.45785],[30.37943,0.45977],[30.37705,0.46022],[30.3748,0.46236],[30.37023,0.46538],[30.36705,0.47027],[30.36504,0.47811],[30.36285,0.48058],[30.35818,0.48227],[30.35516,0.48522],[30.35131,0.48456],[30.34828,0.48767],[30.34262,0.4878],[30.3403,0.48649],[30.3381,0.48609],[30.3366,0.48663],[30.33493,0.48853],[30.3343,0.49195],[30.33316,0.4931],[30.33126,0.49681],[30.33087,0.50082],[30.33281,0.50555],[30.33314,0.50913],[30.33283,0.51133],[30.32996,0.5137],[30.32791,0.51715],[30.32637,0.51853],[30.32625,0.5236],[30.32528,0.52504],[30.32751,0.5284],[30.32642,0.53062],[30.32528,0.53172],[30.3252,0.53268],[30.32803,0.53609],[30.32766,0.53713],[30.32518,0.53968],[30.32418,0.54257],[30.32501,0.55373],[30.32351,0.5594],[30.3234,0.56223],[30.32179,0.5649],[30.3158,0.56853],[30.31294,0.57113],[30.31027,0.57523],[30.30892,0.5792],[30.31038,0.58826],[30.31515,0.59396],[30.31552,0.59558],[30.31501,0.59729],[30.31394,0.59986],[30.31244,0.60149],[30.31013,0.60292],[30.30812,0.60523],[30.3058,0.60986],[30.30076,0.61749],[30.30044,0.62039],[30.29824,0.62395],[30.29414,0.62672],[30.29325,0.6289],[30.28909,0.63312],[30.28862,0.63443],[30.28847,0.63904],[30.28703,0.64118],[30.28624,0.64439],[30.28122,0.65111],[30.28282,0.65446],[30.28274,0.65559],[30.28184,0.65622],[30.27878,0.65618],[30.27798,0.65658]]}},{"type":"Feature","properties":{"name":"Rwekunye - Masindi Port","functional_class":"Class B National Road","surface_type":"Unsealed","length_km":7.343,"road_no":"B253"},"geometry":{"type":"MultiLineString","coordinates":[[[32.02853,1.70986],[32.03494,1.70975],[32.0925,1.69513]],[[32.0925,1.69513],[32.09261,1.69528]]]}},{"type":"Feature","properties":{"name":"Kyenjojo - Katoke - R. Muzizi","functional_class":"Class B National Road","surface_type":"Bituminous","length_km":37.9,"road_no":"B202"},"geometry":{"type":"LineString","coordinates":[[30.64348,0.6118],[30.6449,0.61701],[30.64529,0.62118],[30.64438,0.62474],[30.64463,0.62776],[30.64882,0.63275],[30.65058,0.63977],[30.65044,0.64206],[30.65273,0.64498],[30.6533,0.64903],[30.65534,0.6516],[30.65428,0.65606],[30.65492,0.65709],[30.65735,0.65891],[30.65663,0.66196],[30.6569,0.6636],[30.65909,0.66981],[30.66098,0.67347],[30.66169,0.67768],[30.66339,0.68063],[30.66525,0.68547],[30.6655,0.69022],[30.66751,0.69353],[30.66892,0.69766],[30.67018,0.69845],[30.67262,0.69782],[30.6769,0.69869],[30.68018,0.69791],[30.68254,0.69912],[30.6847,0.70217],[30.68766,0.70403],[30.68725,0.71029],[30.69086,0.71621],[30.69186,0.72085],[30.69321,0.72363],[30.69821,0.73041],[30.70025,0.73473],[30.7043,0.73718],[30.7103,0.7381],[30.71916,0.74382],[30.72424,0.74854],[30.72913,0.75007],[30.7303,0.75383],[30.72884,0.7569],[30.72798,0.76278],[30.72934,0.76506],[30.73133,0.76661],[30.73282,0.76927],[30.73542,0.77149],[30.7361,0.77275],[30.73572,0.77466],[30.73357,0.77726],[30.73326,0.78047],[30.73487,0.78281],[30.7426,0.78366],[30.74607,0.7865],[30.74627,0.78919],[30.7471,0.79142],[30.74633,0.79356],[30.74683,0.79565],[30.74632,0.79849],[30.74645,0.80216],[30.74471,0.80442],[30.74006,0.80628],[30.73893,0.80724],[30.73821,0.80862],[30.73755,0.81317],[30.73571,0.81477],[30.73524,0.81579],[30.73569,0.81711],[30.73837,0.81915],[30.73996,0.82247],[30.74246,0.83195],[30.74235,0.83593],[30.74286,0.83875],[30.74212,0.84011],[30.73675,0.84317],[30.73608,0.84404],[30.73553,0.84607],[30.73616,0.8498],[30.73516,0.85484],[30.73537,0.85857],[30.73298,0.86063],[30.73283,0.86461],[30.7294,0.86955],[30.73068,0.87316]]}},{"type":"Feature","properties":{"name":"Masindi - Kisalizi","functional_class":"Class B National Road","surface_type":"Bituminous","length_km":31.469,"road_no":"B204"},"geometry":{"type":"LineString","coordinates":[[31.70284,1.68066],[31.70536,1.67178],[31.70617,1.6563],[31.70747,1.6498],[31.70095,1.63573],[31.6977,1.63217],[31.69159,1.62888],[31.6794,1.61928],[31.66656,1.6109],[31.6631,1.60707],[31.65977,1.60229],[31.65519,1.59989],[31.653,1.59751],[31.65186,1.59718],[31.64944,1.59762],[31.64004,1.5967],[31.6381,1.59573],[31.62989,1.58371],[31.6263,1.581],[31.62379,1.57756],[31.62031,1.5762],[31.61825,1.57443],[31.61586,1.56962],[31.61319,1.56767],[31.61147,1.5643],[31.60807,1.55952],[31.60533,1.55419],[31.60485,1.54987],[31.60343,1.54707],[31.60019,1.54358],[31.59472,1.53917],[31.58749,1.53623],[31.58234,1.53246],[31.58067,1.52964],[31.57897,1.52849],[31.56611,1.52748],[31.56208,1.52337],[31.5583,1.52167],[31.55536,1.51844],[31.55157,1.5185],[31.54211,1.51278],[31.53009,1.50682],[31.51978,1.5054],[31.5167,1.50366]]}},{"type":"Feature","properties":{"name":"R. Muzizi - Muhooro - Kagadi","functional_class":"Class B National Road","surface_type":"Bituminous","length_km":15,"road_no":"B202"},"geometry":{"type":"LineString","coordinates":[[30.80901,0.93812],[30.80612,0.93213],[30.80105,0.9265],[30.8008,0.9235],[30.79525,0.9169],[30.794,0.91669],[30.78592,0.91869],[30.78208,0.92224],[30.78014,0.92564],[30.77824,0.9261],[30.77516,0.92439],[30.77234,0.92161],[30.76415,0.91927],[30.76162,0.91596],[30.76029,0.91519],[30.7581,0.91486],[30.75582,0.91038],[30.75154,0.90576],[30.74238,0.90103],[30.73958,0.90079],[30.73834,0.90006],[30.737,0.89815],[30.73472,0.89667],[30.73108,0.89068],[30.73135,0.8893],[30.73338,0.88725],[30.73393,0.88542],[30.73574,0.88377],[30.73683,0.88175],[30.73613,0.88036],[30.73229,0.87881],[30.73284,0.87574],[30.73068,0.87316]]}},{"type":"Feature","properties":{"name":"Kabaale Swamp - Buhimba","functional_class":"Class B National Road","surface_type":"Bituminous","length_km":16,"road_no":"B203"},"geometry":{"type":"LineString","coordinates":[[31.28965,1.21021],[31.29335,1.21865],[31.29578,1.22983],[31.29611,1.2431],[31.29874,1.25238],[31.29864,1.25889],[31.29932,1.26491],[31.30106,1.271],[31.30549,1.28155],[31.30522,1.28423],[31.3017,1.29029],[31.30128,1.29517],[31.30323,1.30149],[31.30412,1.31256],[31.30931,1.32303],[31.31096,1.32768],[31.31235,1.33372],[31.31218,1.34675]]}},{"type":"Feature","properties":{"name":"Villa Maria - Sembabule","functional_class":"Class B National Road","surface_type":"Bituminous","length_km":36,"road_no":"B103"},"geometry":{"type":"LineString","coordinates":[[31.73752,-0.23116],[31.73671,-0.23],[31.73524,-0.22912],[31.72952,-0.22776],[31.72509,-0.22778],[31.71741,-0.23055],[31.71579,-0.23037],[31.7137,-0.22737],[31.71019,-0.22633],[31.70659,-0.22306],[31.7045,-0.22195],[31.70292,-0.21922],[31.70038,-0.2178],[31.69837,-0.21403],[31.69635,-0.20783],[31.69388,-0.20455],[31.68897,-0.20149],[31.68083,-0.19503],[31.67586,-0.19309],[31.67155,-0.19001],[31.66148,-0.18609],[31.65006,-0.18639],[31.64186,-0.18595],[31.63445,-0.18461],[31.62881,-0.18223],[31.62472,-0.17911],[31.62191,-0.17576],[31.6189,-0.167],[31.61731,-0.16426],[31.60654,-0.15571],[31.5988,-0.15236],[31.59484,-0.14788],[31.58888,-0.14287],[31.57841,-0.13648],[31.57507,-0.13471],[31.56413,-0.13057],[31.55155,-0.12331],[31.54014,-0.11356],[31.5376,-0.11192],[31.5352,-0.11119],[31.52988,-0.1071],[31.52467,-0.10495],[31.52161,-0.10296],[31.51676,-0.1018],[31.50387,-0.09565],[31.50084,-0.09538],[31.49736,-0.09387],[31.49363,-0.09347],[31.49009,-0.09241],[31.48457,-0.0927],[31.47909,-0.09067],[31.474,-0.08759],[31.46772,-0.08688],[31.46148,-0.08193]]}},{"type":"Feature","properties":{"name":"Kisalizi - Hoima","functional_class":"Class B National Road","surface_type":"Bituminous","length_km":20.3,"road_no":"B204"},"geometry":{"type":"LineString","coordinates":[[31.5167,1.50366],[31.51311,1.50173],[31.51133,1.49907],[31.5102,1.49821],[31.49543,1.49749],[31.48099,1.49002],[31.47522,1.48768],[31.47299,1.48594],[31.47028,1.48506],[31.46646,1.48275],[31.45914,1.48232],[31.45352,1.48006],[31.44954,1.47359],[31.44545,1.47191],[31.43542,1.46165],[31.43444,1.45663],[31.43234,1.45358],[31.4321,1.45059],[31.43125,1.44929],[31.42533,1.4462],[31.4128,1.4442],[31.40954,1.44218],[31.40504,1.44069],[31.40093,1.43803],[31.39544,1.43338],[31.38568,1.42903],[31.3815,1.42805],[31.37769,1.42395],[31.37139,1.42169]]}},{"type":"Feature","properties":{"name":"Atiak - Moyo","functional_class":"Class B National Road","surface_type":"Bituminous","length_km":64.878,"road_no":"B250"},"geometry":{"type":"LineString","coordinates":[[31.81113,3.54538],[31.81266,3.55211],[31.81553,3.55919],[31.81956,3.56011],[31.82483,3.56417],[31.82873,3.56832],[31.8304,3.57194],[31.83035,3.57373],[31.82811,3.58097],[31.82746,3.58452],[31.82771,3.58599],[31.82586,3.58908],[31.82469,3.58985],[31.81589,3.59004],[31.81488,3.59053],[31.81739,3.59485],[31.81784,3.59699],[31.81466,3.60391],[31.8156,3.60832],[31.81354,3.61147],[31.81106,3.61213],[31.81076,3.61338],[31.8088,3.61548],[31.80701,3.61967],[31.80711,3.62282],[31.80419,3.62832],[31.80455,3.63329],[31.80287,3.63427],[31.80096,3.63344],[31.79715,3.63413],[31.79344,3.63374],[31.7921,3.63439],[31.79094,3.63609],[31.78933,3.64031],[31.78697,3.65324],[31.78721,3.66141],[31.78776,3.6645],[31.7871,3.66758],[31.78523,3.66917],[31.78094,3.66819],[31.77615,3.6651],[31.76412,3.6543],[31.75539,3.64993],[31.75227,3.64934],[31.73934,3.6434],[31.73483,3.64276],[31.73281,3.64306],[31.73215,3.64368],[31.73041,3.64818],[31.72802,3.65151],[31.7267,3.65256],[31.72354,3.65374]]}}]}