{"type":"FeatureCollection","features":[{"type":"Feature","properties":{"name":"Kampala-Masaka A109","functional_class":"Class A","surface_type":"Paved","length_km":135},"geometry":{"type":"LineString","coordinates":[[32.577,0.317],[32,-0.3],[31,-1]]}},{"type":"Feature","properties":{"name":"Kampala-Jinja A109","functional_class":"Class A","surface_type":"Paved","length_km":81},"geometry":{"type":"LineString","coordinates":[[32.577,0.317],[33.2,0.45],[34,0.5]]}},{"type":"Feature","properties":{"name":"Kampala-Gulu A1","functional_class":"Class A","surface_type":"Paved","length_km":334},"geometry":{"type":"LineString","coordinates":[[32.577,0.317],[32.2,1.7],[32.1,2.2]]}}]}